{"type":"FeatureCollection","features":[{"type":"Feature","geometry":null,"properties":{"NAME":"Plymouth town","BASENAME":"Plymouth","GEOID":"0914060750","STATE":"09","COUNTY":"140","COUSUB":"60750"}},{"type":"Feature","geometry":null,"properties":{"NAME":"County subdivisions not defined","BASENAME":"County subdivisions not defined","GEOID":"0917000000","STATE":"09","COUNTY":"170","COUSUB":"00000"}},{"type":"Feature","geometry":null,"properties":{"NAME":"Madison town","BASENAME":"Madison","GEOID":"0917044560","STATE":"09","COUNTY":"170","COUSUB":"44560"}},{"type":"Feature","geometry":null,"properties":{"NAME":"Tolland town","BASENAME":"Tolland","GEOID":"0911076290","STATE":"09","COUNTY":"110","COUSUB":"76290"}},{"type":"Feature","geometry":null,"properties":{"NAME":"Union town","BASENAME":"Union","GEOID":"0915077830","STATE":"09","COUNTY":"150","COUSUB":"77830"}},{"type":"Feature","geometry":null,"properties":{"NAME":"Seymour town","BASENAME":"Seymour","GEOID":"0914067610","STATE":"09","COUNTY":"140","COUSUB":"67610"}},{"type":"Feature","geometry":null,"properties":{"NAME":"Naugatuck town","BASENAME":"Naugatuck","GEOID":"0914049950","STATE":"09","COUNTY":"140","COUSUB":"49950"}},{"type":"Feature","geometry":null,"properties":{"NAME":"Vernon town","BASENAME":"Vernon","GEOID":"0911078250","STATE":"09","COUNTY":"110","COUSUB":"78250"}},{"type":"Feature","geometry":null,"properties":{"NAME":"Willington town","BASENAME":"Willington","GEOID":"0911085950","STATE":"09","COUNTY":"110","COUSUB":"85950"}},{"type":"Feature","geometry":null,"properties":{"NAME":"Woodbridge town","BASENAME":"Woodbridge","GEOID":"0917087700","STATE":"09","COUNTY":"170","COUSUB":"87700"}},{"type":"Feature","geometry":null,"properties":{"NAME":"Windham town","BASENAME":"Windham","GEOID":"0918086790","STATE":"09","COUNTY":"180","COUSUB":"86790"}},{"type":"Feature","geometry":null,"properties":{"NAME":"Windsor Locks town","BASENAME":"Windsor Locks","GEOID":"0911087070","STATE":"09","COUNTY":"110","COUSUB":"87070"}},{"type":"Feature","geometry":null,"properties":{"NAME":"Prospect town","BASENAME":"Prospect","GEOID":"0914062290","STATE":"09","COUNTY":"140","COUSUB":"62290"}},{"type":"Feature","geometry":null,"properties":{"NAME":"Cheshire town","BASENAME":"Cheshire","GEOID":"0914014160","STATE":"09","COUNTY":"140","COUSUB":"14160"}},{"type":"Feature","geometry":null,"properties":{"NAME":"Derby town","BASENAME":"Derby","GEOID":"0914019550","STATE":"09","COUNTY":"140","COUSUB":"19550"}},{"type":"Feature","geometry":null,"properties":{"NAME":"East Haven town","BASENAME":"East Haven","GEOID":"0917022910","STATE":"09","COUNTY":"170","COUSUB":"22910"}},{"type":"Feature","geometry":null,"properties":{"NAME":"East Granby town","BASENAME":"East Granby","GEOID":"0911022070","STATE":"09","COUNTY":"110","COUSUB":"22070"}},{"type":"Feature","geometry":null,"properties":{"NAME":"East Hartford town","BASENAME":"East Hartford","GEOID":"0911022630","STATE":"09","COUNTY":"110","COUSUB":"22630"}},{"type":"Feature","geometry":null,"properties":{"NAME":"Enfield town","BASENAME":"Enfield","GEOID":"0911025990","STATE":"09","COUNTY":"110","COUSUB":"25990"}},{"type":"Feature","geometry":null,"properties":{"NAME":"Farmington town","BASENAME":"Farmington","GEOID":"0911027600","STATE":"09","COUNTY":"110","COUSUB":"27600"}},{"type":"Feature","geometry":null,"properties":{"NAME":"Glastonbury town","BASENAME":"Glastonbury","GEOID":"0911031240","STATE":"09","COUNTY":"110","COUSUB":"31240"}},{"type":"Feature","geometry":null,"properties":{"NAME":"Hartford town","BASENAME":"Hartford","GEOID":"0911037070","STATE":"09","COUNTY":"110","COUSUB":"37070"}},{"type":"Feature","geometry":null,"properties":{"NAME":"Wolcott town","BASENAME":"Wolcott","GEOID":"0914087560","STATE":"09","COUNTY":"140","COUSUB":"87560"}},{"type":"Feature","geometry":null,"properties":{"NAME":"Granby town","BASENAME":"Granby","GEOID":"0911032640","STATE":"09","COUNTY":"110","COUSUB":"32640"}},{"type":"Feature","geometry":null,"properties":{"NAME":"Southbury town","BASENAME":"Southbury","GEOID":"0914069640","STATE":"09","COUNTY":"140","COUSUB":"69640"}},{"type":"Feature","geometry":null,"properties":{"NAME":"Beacon Falls town","BASENAME":"Beacon Falls","GEOID":"0914003250","STATE":"09","COUNTY":"140","COUSUB":"03250"}},{"type":"Feature","geometry":null,"properties":{"NAME":"Salem town","BASENAME":"Salem","GEOID":"0918066210","STATE":"09","COUNTY":"180","COUSUB":"66210"}},{"type":"Feature","geometry":null,"properties":{"NAME":"Sprague town","BASENAME":"Sprague","GEOID":"0918071670","STATE":"09","COUNTY":"180","COUSUB":"71670"}},{"type":"Feature","geometry":null,"properties":{"NAME":"Voluntown town","BASENAME":"Voluntown","GEOID":"0915078600","STATE":"09","COUNTY":"150","COUSUB":"78600"}},{"type":"Feature","geometry":null,"properties":{"NAME":"Waterford town","BASENAME":"Waterford","GEOID":"0918080280","STATE":"09","COUNTY":"180","COUSUB":"80280"}},{"type":"Feature","geometry":null,"properties":{"NAME":"Guilford town","BASENAME":"Guilford","GEOID":"0917034950","STATE":"09","COUNTY":"170","COUSUB":"34950"}},{"type":"Feature","geometry":null,"properties":{"NAME":"Rocky Hill town","BASENAME":"Rocky Hill","GEOID":"0911065370","STATE":"09","COUNTY":"110","COUSUB":"65370"}},{"type":"Feature","geometry":null,"properties":{"NAME":"Suffield town","BASENAME":"Suffield","GEOID":"0911074540","STATE":"09","COUNTY":"110","COUSUB":"74540"}},{"type":"Feature","geometry":null,"properties":{"NAME":"Trumbull town","BASENAME":"Trumbull","GEOID":"0912077200","STATE":"09","COUNTY":"120","COUSUB":"77200"}},{"type":"Feature","geometry":null,"properties":{"NAME":"Weston town","BASENAME":"Weston","GEOID":"0919083430","STATE":"09","COUNTY":"190","COUSUB":"83430"}},{"type":"Feature","geometry":null,"properties":{"NAME":"Westport town","BASENAME":"Westport","GEOID":"0919083500","STATE":"09","COUNTY":"190","COUSUB":"83500"}},{"type":"Feature","geometry":null,"properties":{"NAME":"Wilton town","BASENAME":"Wilton","GEOID":"0919086370","STATE":"09","COUNTY":"190","COUSUB":"86370"}},{"type":"Feature","geometry":null,"properties":{"NAME":"Portland town","BASENAME":"Portland","GEOID":"0913061800","STATE":"09","COUNTY":"130","COUSUB":"61800"}},{"type":"Feature","geometry":null,"properties":{"NAME":"Middlebury town","BASENAME":"Middlebury","GEOID":"0914046940","STATE":"09","COUNTY":"140","COUSUB":"46940"}},{"type":"Feature","geometry":null,"properties":{"NAME":"Middletown town","BASENAME":"Middletown","GEOID":"0913047360","STATE":"09","COUNTY":"130","COUSUB":"47360"}},{"type":"Feature","geometry":null,"properties":{"NAME":"Ansonia town","BASENAME":"Ansonia","GEOID":"0914001220","STATE":"09","COUNTY":"140","COUSUB":"01220"}},{"type":"Feature","geometry":null,"properties":{"NAME":"Bethany town","BASENAME":"Bethany","GEOID":"0917004580","STATE":"09","COUNTY":"170","COUSUB":"04580"}},{"type":"Feature","geometry":null,"properties":{"NAME":"Branford town","BASENAME":"Branford","GEOID":"0917007310","STATE":"09","COUNTY":"170","COUSUB":"07310"}},{"type":"Feature","geometry":null,"properties":{"NAME":"Putnam town","BASENAME":"Putnam","GEOID":"0915062710","STATE":"09","COUNTY":"150","COUSUB":"62710"}},{"type":"Feature","geometry":null,"properties":{"NAME":"West Hartford town","BASENAME":"West Hartford","GEOID":"0911082590","STATE":"09","COUNTY":"110","COUSUB":"82590"}},{"type":"Feature","geometry":null,"properties":{"NAME":"Wethersfield town","BASENAME":"Wethersfield","GEOID":"0911084900","STATE":"09","COUNTY":"110","COUSUB":"84900"}},{"type":"Feature","geometry":null,"properties":{"NAME":"Windsor town","BASENAME":"Windsor","GEOID":"0911087000","STATE":"09","COUNTY":"110","COUSUB":"87000"}},{"type":"Feature","geometry":null,"properties":{"NAME":"County subdivisions not defined","BASENAME":"County subdivisions not defined","GEOID":"0913000000","STATE":"09","COUNTY":"130","COUSUB":"00000"}},{"type":"Feature","geometry":null,"properties":{"NAME":"Deep River town","BASENAME":"Deep River","GEOID":"0913019130","STATE":"09","COUNTY":"130","COUSUB":"19130"}},{"type":"Feature","geometry":null,"properties":{"NAME":"East Haddam town","BASENAME":"East Haddam","GEOID":"0913022280","STATE":"09","COUNTY":"130","COUSUB":"22280"}},{"type":"Feature","geometry":null,"properties":{"NAME":"East Hampton town","BASENAME":"East Hampton","GEOID":"0913022490","STATE":"09","COUNTY":"130","COUSUB":"22490"}},{"type":"Feature","geometry":null,"properties":{"NAME":"Bolton town","BASENAME":"Bolton","GEOID":"0911006260","STATE":"09","COUNTY":"110","COUSUB":"06260"}},{"type":"Feature","geometry":null,"properties":{"NAME":"Ellington town","BASENAME":"Ellington","GEOID":"0911025360","STATE":"09","COUNTY":"110","COUSUB":"25360"}},{"type":"Feature","geometry":null,"properties":{"NAME":"Hebron town","BASENAME":"Hebron","GEOID":"0911037910","STATE":"09","COUNTY":"110","COUSUB":"37910"}},{"type":"Feature","geometry":null,"properties":{"NAME":"Somers town","BASENAME":"Somers","GEOID":"0911069220","STATE":"09","COUNTY":"110","COUSUB":"69220"}},{"type":"Feature","geometry":null,"properties":{"NAME":"Stafford town","BASENAME":"Stafford","GEOID":"0911072090","STATE":"09","COUNTY":"110","COUSUB":"72090"}},{"type":"Feature","geometry":null,"properties":{"NAME":"Milford town","BASENAME":"Milford","GEOID":"0917047535","STATE":"09","COUNTY":"170","COUSUB":"47535"}},{"type":"Feature","geometry":null,"properties":{"NAME":"Oxford town","BASENAME":"Oxford","GEOID":"0914058300","STATE":"09","COUNTY":"140","COUSUB":"58300"}},{"type":"Feature","geometry":null,"properties":{"NAME":"Old Lyme town","BASENAME":"Old Lyme","GEOID":"0913057040","STATE":"09","COUNTY":"130","COUSUB":"57040"}},{"type":"Feature","geometry":null,"properties":{"NAME":"Stonington town","BASENAME":"Stonington","GEOID":"0918073770","STATE":"09","COUNTY":"180","COUSUB":"73770"}},{"type":"Feature","geometry":null,"properties":{"NAME":"Scotland town","BASENAME":"Scotland","GEOID":"0915067400","STATE":"09","COUNTY":"150","COUSUB":"67400"}},{"type":"Feature","geometry":null,"properties":{"NAME":"Andover town","BASENAME":"Andover","GEOID":"0911001080","STATE":"09","COUNTY":"110","COUSUB":"01080"}},{"type":"Feature","geometry":null,"properties":{"NAME":"Columbia town","BASENAME":"Columbia","GEOID":"0911016400","STATE":"09","COUNTY":"110","COUSUB":"16400"}},{"type":"Feature","geometry":null,"properties":{"NAME":"Coventry town","BASENAME":"Coventry","GEOID":"0911017800","STATE":"09","COUNTY":"110","COUSUB":"17800"}},{"type":"Feature","geometry":null,"properties":{"NAME":"Mansfield town","BASENAME":"Mansfield","GEOID":"0911044910","STATE":"09","COUNTY":"110","COUSUB":"44910"}},{"type":"Feature","geometry":null,"properties":{"NAME":"Hamden town","BASENAME":"Hamden","GEOID":"0917035650","STATE":"09","COUNTY":"170","COUSUB":"35650"}},{"type":"Feature","geometry":null,"properties":{"NAME":"Meriden town","BASENAME":"Meriden","GEOID":"0917046520","STATE":"09","COUNTY":"170","COUSUB":"46520"}},{"type":"Feature","geometry":null,"properties":{"NAME":"Ridgefield town","BASENAME":"Ridgefield","GEOID":"0919063970","STATE":"09","COUNTY":"190","COUSUB":"63970"}},{"type":"Feature","geometry":null,"properties":{"NAME":"Sterling town","BASENAME":"Sterling","GEOID":"0915073420","STATE":"09","COUNTY":"150","COUSUB":"73420"}},{"type":"Feature","geometry":null,"properties":{"NAME":"Thompson town","BASENAME":"Thompson","GEOID":"0915075870","STATE":"09","COUNTY":"150","COUSUB":"75870"}},{"type":"Feature","geometry":null,"properties":{"NAME":"Woodstock town","BASENAME":"Woodstock","GEOID":"0915088190","STATE":"09","COUNTY":"150","COUSUB":"88190"}},{"type":"Feature","geometry":null,"properties":{"NAME":"Lyme town","BASENAME":"Lyme","GEOID":"0913044210","STATE":"09","COUNTY":"130","COUSUB":"44210"}},{"type":"Feature","geometry":null,"properties":{"NAME":"Montville town","BASENAME":"Montville","GEOID":"0918048900","STATE":"09","COUNTY":"180","COUSUB":"48900"}},{"type":"Feature","geometry":null,"properties":{"NAME":"North Stonington town","BASENAME":"North Stonington","GEOID":"0918055500","STATE":"09","COUNTY":"180","COUSUB":"55500"}},{"type":"Feature","geometry":null,"properties":{"NAME":"Norwich town","BASENAME":"Norwich","GEOID":"0918056270","STATE":"09","COUNTY":"180","COUSUB":"56270"}},{"type":"Feature","geometry":null,"properties":{"NAME":"Middlefield town","BASENAME":"Middlefield","GEOID":"0913047080","STATE":"09","COUNTY":"130","COUSUB":"47080"}},{"type":"Feature","geometry":null,"properties":{"NAME":"Old Saybrook town","BASENAME":"Old Saybrook","GEOID":"0913057320","STATE":"09","COUNTY":"130","COUSUB":"57320"}},{"type":"Feature","geometry":null,"properties":{"NAME":"Westbrook town","BASENAME":"Westbrook","GEOID":"0913081680","STATE":"09","COUNTY":"130","COUSUB":"81680"}},{"type":"Feature","geometry":null,"properties":{"NAME":"Essex town","BASENAME":"Essex","GEOID":"0913026270","STATE":"09","COUNTY":"130","COUSUB":"26270"}},{"type":"Feature","geometry":null,"properties":{"NAME":"Haddam town","BASENAME":"Haddam","GEOID":"0913035230","STATE":"09","COUNTY":"130","COUSUB":"35230"}},{"type":"Feature","geometry":null,"properties":{"NAME":"Killingworth town","BASENAME":"Killingworth","GEOID":"0913040710","STATE":"09","COUNTY":"130","COUSUB":"40710"}},{"type":"Feature","geometry":null,"properties":{"NAME":"Preston town","BASENAME":"Preston","GEOID":"0918062150","STATE":"09","COUNTY":"180","COUSUB":"62150"}},{"type":"Feature","geometry":null,"properties":{"NAME":"Barkhamsted town","BASENAME":"Barkhamsted","GEOID":"0916002760","STATE":"09","COUNTY":"160","COUSUB":"02760"}},{"type":"Feature","geometry":null,"properties":{"NAME":"Litchfield town","BASENAME":"Litchfield","GEOID":"0916043370","STATE":"09","COUNTY":"160","COUSUB":"43370"}},{"type":"Feature","geometry":null,"properties":{"NAME":"New Hartford town","BASENAME":"New Hartford","GEOID":"0916051350","STATE":"09","COUNTY":"160","COUSUB":"51350"}},{"type":"Feature","geometry":null,"properties":{"NAME":"New Milford town","BASENAME":"New Milford","GEOID":"0919052630","STATE":"09","COUNTY":"190","COUSUB":"52630"}},{"type":"Feature","geometry":null,"properties":{"NAME":"Norfolk town","BASENAME":"Norfolk","GEOID":"0916053470","STATE":"09","COUNTY":"160","COUSUB":"53470"}},{"type":"Feature","geometry":null,"properties":{"NAME":"North Canaan town","BASENAME":"North Canaan","GEOID":"0916054030","STATE":"09","COUNTY":"160","COUSUB":"54030"}},{"type":"Feature","geometry":null,"properties":{"NAME":"Sharon town","BASENAME":"Sharon","GEOID":"0916067960","STATE":"09","COUNTY":"160","COUSUB":"67960"}},{"type":"Feature","geometry":null,"properties":{"NAME":"Thomaston town","BASENAME":"Thomaston","GEOID":"0914075730","STATE":"09","COUNTY":"140","COUSUB":"75730"}},{"type":"Feature","geometry":null,"properties":{"NAME":"Shelton town","BASENAME":"Shelton","GEOID":"0914068170","STATE":"09","COUNTY":"140","COUSUB":"68170"}},{"type":"Feature","geometry":null,"properties":{"NAME":"Sherman town","BASENAME":"Sherman","GEOID":"0919068310","STATE":"09","COUNTY":"190","COUSUB":"68310"}},{"type":"Feature","geometry":null,"properties":{"NAME":"Stamford town","BASENAME":"Stamford","GEOID":"0919073070","STATE":"09","COUNTY":"190","COUSUB":"73070"}},{"type":"Feature","geometry":null,"properties":{"NAME":"Stratford town","BASENAME":"Stratford","GEOID":"0912074190","STATE":"09","COUNTY":"120","COUSUB":"74190"}},{"type":"Feature","geometry":null,"properties":{"NAME":"Bethlehem town","BASENAME":"Bethlehem","GEOID":"0914004930","STATE":"09","COUNTY":"140","COUSUB":"04930"}},{"type":"Feature","geometry":null,"properties":{"NAME":"Bridgewater town","BASENAME":"Bridgewater","GEOID":"0919008210","STATE":"09","COUNTY":"190","COUSUB":"08210"}},{"type":"Feature","geometry":null,"properties":{"NAME":"Canaan town","BASENAME":"Canaan","GEOID":"0916010940","STATE":"09","COUNTY":"160","COUSUB":"10940"}},{"type":"Feature","geometry":null,"properties":{"NAME":"Colebrook town","BASENAME":"Colebrook","GEOID":"0916016050","STATE":"09","COUNTY":"160","COUSUB":"16050"}},{"type":"Feature","geometry":null,"properties":{"NAME":"Ashford town","BASENAME":"Ashford","GEOID":"0915001430","STATE":"09","COUNTY":"150","COUSUB":"01430"}},{"type":"Feature","geometry":null,"properties":{"NAME":"Brooklyn town","BASENAME":"Brooklyn","GEOID":"0915009190","STATE":"09","COUNTY":"150","COUSUB":"09190"}},{"type":"Feature","geometry":null,"properties":{"NAME":"Canterbury town","BASENAME":"Canterbury","GEOID":"0915012130","STATE":"09","COUNTY":"150","COUSUB":"12130"}},{"type":"Feature","geometry":null,"properties":{"NAME":"Chaplin town","BASENAME":"Chaplin","GEOID":"0915013810","STATE":"09","COUNTY":"150","COUSUB":"13810"}},{"type":"Feature","geometry":null,"properties":{"NAME":"Canton town","BASENAME":"Canton","GEOID":"0911012270","STATE":"09","COUNTY":"110","COUSUB":"12270"}},{"type":"Feature","geometry":null,"properties":{"NAME":"Bozrah town","BASENAME":"Bozrah","GEOID":"0918006820","STATE":"09","COUNTY":"180","COUSUB":"06820"}},{"type":"Feature","geometry":null,"properties":{"NAME":"Colchester town","BASENAME":"Colchester","GEOID":"0918015910","STATE":"09","COUNTY":"180","COUSUB":"15910"}},{"type":"Feature","geometry":null,"properties":{"NAME":"East Lyme town","BASENAME":"East Lyme","GEOID":"0918023400","STATE":"09","COUNTY":"180","COUSUB":"23400"}},{"type":"Feature","geometry":null,"properties":{"NAME":"Franklin town","BASENAME":"Franklin","GEOID":"0918029910","STATE":"09","COUNTY":"180","COUSUB":"29910"}},{"type":"Feature","geometry":null,"properties":{"NAME":"Griswold town","BASENAME":"Griswold","GEOID":"0918033900","STATE":"09","COUNTY":"180","COUSUB":"33900"}},{"type":"Feature","geometry":null,"properties":{"NAME":"Groton town","BASENAME":"Groton","GEOID":"0918034250","STATE":"09","COUNTY":"180","COUSUB":"34250"}},{"type":"Feature","geometry":null,"properties":{"NAME":"County subdivisions not defined","BASENAME":"County subdivisions not defined","GEOID":"0912000000","STATE":"09","COUNTY":"120","COUSUB":"00000"}},{"type":"Feature","geometry":null,"properties":{"NAME":"Bethel town","BASENAME":"Bethel","GEOID":"0919004720","STATE":"09","COUNTY":"190","COUSUB":"04720"}},{"type":"Feature","geometry":null,"properties":{"NAME":"Bridgeport town","BASENAME":"Bridgeport","GEOID":"0912008070","STATE":"09","COUNTY":"120","COUSUB":"08070"}},{"type":"Feature","geometry":null,"properties":{"NAME":"Cromwell town","BASENAME":"Cromwell","GEOID":"0913018080","STATE":"09","COUNTY":"130","COUSUB":"18080"}},{"type":"Feature","geometry":null,"properties":{"NAME":"Durham town","BASENAME":"Durham","GEOID":"0913020810","STATE":"09","COUNTY":"130","COUSUB":"20810"}},{"type":"Feature","geometry":null,"properties":{"NAME":"New London town","BASENAME":"New London","GEOID":"0918052350","STATE":"09","COUNTY":"180","COUSUB":"52350"}},{"type":"Feature","geometry":null,"properties":{"NAME":"Brookfield town","BASENAME":"Brookfield","GEOID":"0919008980","STATE":"09","COUNTY":"190","COUSUB":"08980"}},{"type":"Feature","geometry":null,"properties":{"NAME":"Danbury town","BASENAME":"Danbury","GEOID":"0919018500","STATE":"09","COUNTY":"190","COUSUB":"18500"}},{"type":"Feature","geometry":null,"properties":{"NAME":"Darien town","BASENAME":"Darien","GEOID":"0919018850","STATE":"09","COUNTY":"190","COUSUB":"18850"}},{"type":"Feature","geometry":null,"properties":{"NAME":"Easton town","BASENAME":"Easton","GEOID":"0912023890","STATE":"09","COUNTY":"120","COUSUB":"23890"}},{"type":"Feature","geometry":null,"properties":{"NAME":"Fairfield town","BASENAME":"Fairfield","GEOID":"0912026620","STATE":"09","COUNTY":"120","COUSUB":"26620"}},{"type":"Feature","geometry":null,"properties":{"NAME":"Ledyard town","BASENAME":"Ledyard","GEOID":"0918042600","STATE":"09","COUNTY":"180","COUSUB":"42600"}},{"type":"Feature","geometry":null,"properties":{"NAME":"County subdivisions not defined","BASENAME":"County subdivisions not defined","GEOID":"0919000000","STATE":"09","COUNTY":"190","COUSUB":"00000"}},{"type":"Feature","geometry":null,"properties":{"NAME":"Norwalk town","BASENAME":"Norwalk","GEOID":"0919056060","STATE":"09","COUNTY":"190","COUSUB":"56060"}},{"type":"Feature","geometry":null,"properties":{"NAME":"North Haven town","BASENAME":"North Haven","GEOID":"0917054870","STATE":"09","COUNTY":"170","COUSUB":"54870"}},{"type":"Feature","geometry":null,"properties":{"NAME":"Orange town","BASENAME":"Orange","GEOID":"0917057600","STATE":"09","COUNTY":"170","COUSUB":"57600"}},{"type":"Feature","geometry":null,"properties":{"NAME":"Wallingford town","BASENAME":"Wallingford","GEOID":"0917078740","STATE":"09","COUNTY":"170","COUSUB":"78740"}},{"type":"Feature","geometry":null,"properties":{"NAME":"Waterbury town","BASENAME":"Waterbury","GEOID":"0914080070","STATE":"09","COUNTY":"140","COUSUB":"80070"}},{"type":"Feature","geometry":null,"properties":{"NAME":"West Haven town","BASENAME":"West Haven","GEOID":"0917082870","STATE":"09","COUNTY":"170","COUSUB":"82870"}},{"type":"Feature","geometry":null,"properties":{"NAME":"Hampton town","BASENAME":"Hampton","GEOID":"0915036000","STATE":"09","COUNTY":"150","COUSUB":"36000"}},{"type":"Feature","geometry":null,"properties":{"NAME":"New Haven town","BASENAME":"New Haven","GEOID":"0917052070","STATE":"09","COUNTY":"170","COUSUB":"52070"}},{"type":"Feature","geometry":null,"properties":{"NAME":"North Branford town","BASENAME":"North Branford","GEOID":"0917053890","STATE":"09","COUNTY":"170","COUSUB":"53890"}},{"type":"Feature","geometry":null,"properties":{"NAME":"Roxbury town","BASENAME":"Roxbury","GEOID":"0916065930","STATE":"09","COUNTY":"160","COUSUB":"65930"}},{"type":"Feature","geometry":null,"properties":{"NAME":"Salisbury town","BASENAME":"Salisbury","GEOID":"0916066420","STATE":"09","COUNTY":"160","COUSUB":"66420"}},{"type":"Feature","geometry":null,"properties":{"NAME":"Chester town","BASENAME":"Chester","GEOID":"0913014300","STATE":"09","COUNTY":"130","COUSUB":"14300"}},{"type":"Feature","geometry":null,"properties":{"NAME":"Clinton town","BASENAME":"Clinton","GEOID":"0913015350","STATE":"09","COUNTY":"130","COUSUB":"15350"}},{"type":"Feature","geometry":null,"properties":{"NAME":"Torrington town","BASENAME":"Torrington","GEOID":"0916076570","STATE":"09","COUNTY":"160","COUSUB":"76570"}},{"type":"Feature","geometry":null,"properties":{"NAME":"Warren town","BASENAME":"Warren","GEOID":"0916079510","STATE":"09","COUNTY":"160","COUSUB":"79510"}},{"type":"Feature","geometry":null,"properties":{"NAME":"Washington town","BASENAME":"Washington","GEOID":"0916079720","STATE":"09","COUNTY":"160","COUSUB":"79720"}},{"type":"Feature","geometry":null,"properties":{"NAME":"Watertown town","BASENAME":"Watertown","GEOID":"0914080490","STATE":"09","COUNTY":"140","COUSUB":"80490"}},{"type":"Feature","geometry":null,"properties":{"NAME":"Winchester town","BASENAME":"Winchester","GEOID":"0916086440","STATE":"09","COUNTY":"160","COUSUB":"86440"}},{"type":"Feature","geometry":null,"properties":{"NAME":"Woodbury town","BASENAME":"Woodbury","GEOID":"0914087910","STATE":"09","COUNTY":"140","COUSUB":"87910"}},{"type":"Feature","geometry":null,"properties":{"NAME":"East Windsor town","BASENAME":"East Windsor","GEOID":"0911024800","STATE":"09","COUNTY":"110","COUSUB":"24800"}},{"type":"Feature","geometry":null,"properties":{"NAME":"Killingly town","BASENAME":"Killingly","GEOID":"0915040500","STATE":"09","COUNTY":"150","COUSUB":"40500"}},{"type":"Feature","geometry":null,"properties":{"NAME":"Eastford town","BASENAME":"Eastford","GEOID":"0915021860","STATE":"09","COUNTY":"150","COUSUB":"21860"}},{"type":"Feature","geometry":null,"properties":{"NAME":"Plainfield town","BASENAME":"Plainfield","GEOID":"0915059980","STATE":"09","COUNTY":"150","COUSUB":"59980"}},{"type":"Feature","geometry":null,"properties":{"NAME":"Pomfret town","BASENAME":"Pomfret","GEOID":"0915061030","STATE":"09","COUNTY":"150","COUSUB":"61030"}},{"type":"Feature","geometry":null,"properties":{"NAME":"County subdivisions not defined","BASENAME":"County subdivisions not defined","GEOID":"0918000000","STATE":"09","COUNTY":"180","COUSUB":"00000"}},{"type":"Feature","geometry":null,"properties":{"NAME":"Lebanon town","BASENAME":"Lebanon","GEOID":"0918042390","STATE":"09","COUNTY":"180","COUSUB":"42390"}},{"type":"Feature","geometry":null,"properties":{"NAME":"Lisbon town","BASENAME":"Lisbon","GEOID":"0918043230","STATE":"09","COUNTY":"180","COUSUB":"43230"}},{"type":"Feature","geometry":null,"properties":{"NAME":"Cornwall town","BASENAME":"Cornwall","GEOID":"0916017240","STATE":"09","COUNTY":"160","COUSUB":"17240"}},{"type":"Feature","geometry":null,"properties":{"NAME":"Goshen town","BASENAME":"Goshen","GEOID":"0916032290","STATE":"09","COUNTY":"160","COUSUB":"32290"}},{"type":"Feature","geometry":null,"properties":{"NAME":"Harwinton town","BASENAME":"Harwinton","GEOID":"0916037280","STATE":"09","COUNTY":"160","COUSUB":"37280"}},{"type":"Feature","geometry":null,"properties":{"NAME":"Kent town","BASENAME":"Kent","GEOID":"0916040290","STATE":"09","COUNTY":"160","COUSUB":"40290"}},{"type":"Feature","geometry":null,"properties":{"NAME":"Morris town","BASENAME":"Morris","GEOID":"0916049460","STATE":"09","COUNTY":"160","COUSUB":"49460"}},{"type":"Feature","geometry":null,"properties":{"NAME":"Greenwich town","BASENAME":"Greenwich","GEOID":"0919033620","STATE":"09","COUNTY":"190","COUSUB":"33620"}},{"type":"Feature","geometry":null,"properties":{"NAME":"Monroe town","BASENAME":"Monroe","GEOID":"0912048620","STATE":"09","COUNTY":"120","COUSUB":"48620"}},{"type":"Feature","geometry":null,"properties":{"NAME":"New Canaan town","BASENAME":"New Canaan","GEOID":"0919050580","STATE":"09","COUNTY":"190","COUSUB":"50580"}},{"type":"Feature","geometry":null,"properties":{"NAME":"New Fairfield town","BASENAME":"New Fairfield","GEOID":"0919050860","STATE":"09","COUNTY":"190","COUSUB":"50860"}},{"type":"Feature","geometry":null,"properties":{"NAME":"Newtown town","BASENAME":"Newtown","GEOID":"0919052980","STATE":"09","COUNTY":"190","COUSUB":"52980"}},{"type":"Feature","geometry":null,"properties":{"NAME":"Newington town","BASENAME":"Newington","GEOID":"0911052140","STATE":"09","COUNTY":"110","COUSUB":"52140"}},{"type":"Feature","geometry":null,"properties":{"NAME":"Plainville town","BASENAME":"Plainville","GEOID":"0911060120","STATE":"09","COUNTY":"110","COUSUB":"60120"}},{"type":"Feature","geometry":null,"properties":{"NAME":"Simsbury town","BASENAME":"Simsbury","GEOID":"0911068940","STATE":"09","COUNTY":"110","COUSUB":"68940"}},{"type":"Feature","geometry":null,"properties":{"NAME":"Southington town","BASENAME":"Southington","GEOID":"0911070550","STATE":"09","COUNTY":"110","COUSUB":"70550"}},{"type":"Feature","geometry":null,"properties":{"NAME":"South Windsor town","BASENAME":"South Windsor","GEOID":"0911071390","STATE":"09","COUNTY":"110","COUSUB":"71390"}},{"type":"Feature","geometry":null,"properties":{"NAME":"Hartland town","BASENAME":"Hartland","GEOID":"0916037140","STATE":"09","COUNTY":"160","COUSUB":"37140"}},{"type":"Feature","geometry":null,"properties":{"NAME":"Manchester town","BASENAME":"Manchester","GEOID":"0911044700","STATE":"09","COUNTY":"110","COUSUB":"44700"}},{"type":"Feature","geometry":null,"properties":{"NAME":"New Britain town","BASENAME":"New Britain","GEOID":"0911050440","STATE":"09","COUNTY":"110","COUSUB":"50440"}},{"type":"Feature","geometry":null,"properties":{"NAME":"Avon town","BASENAME":"Avon","GEOID":"0911002060","STATE":"09","COUNTY":"110","COUSUB":"02060"}},{"type":"Feature","geometry":null,"properties":{"NAME":"Berlin town","BASENAME":"Berlin","GEOID":"0911004300","STATE":"09","COUNTY":"110","COUSUB":"04300"}},{"type":"Feature","geometry":null,"properties":{"NAME":"Bloomfield town","BASENAME":"Bloomfield","GEOID":"0911005910","STATE":"09","COUNTY":"110","COUSUB":"05910"}},{"type":"Feature","geometry":null,"properties":{"NAME":"Bristol town","BASENAME":"Bristol","GEOID":"0914008490","STATE":"09","COUNTY":"140","COUSUB":"08490"}},{"type":"Feature","geometry":null,"properties":{"NAME":"Burlington town","BASENAME":"Burlington","GEOID":"0916010100","STATE":"09","COUNTY":"160","COUSUB":"10100"}},{"type":"Feature","geometry":null,"properties":{"NAME":"Redding town","BASENAME":"Redding","GEOID":"0919063480","STATE":"09","COUNTY":"190","COUSUB":"63480"}},{"type":"Feature","geometry":null,"properties":{"NAME":"Marlborough town","BASENAME":"Marlborough","GEOID":"0911045820","STATE":"09","COUNTY":"110","COUSUB":"45820"}}]}