{"type":"FeatureCollection","features":[{"type":"Feature","geometry":null,"properties":{"NAME":"Charlton town","BASENAME":"Charlton","GEOID":"2502712715","STATE":"25","COUNTY":"027"}},{"type":"Feature","geometry":null,"properties":{"NAME":"Stoughton town","BASENAME":"Stoughton","GEOID":"2502167945","STATE":"25","COUNTY":"021"}},{"type":"Feature","geometry":null,"properties":{"NAME":"Walpole town","BASENAME":"Walpole","GEOID":"2502172495","STATE":"25","COUNTY":"021"}},{"type":"Feature","geometry":null,"properties":{"NAME":"Norwood town","BASENAME":"Norwood","GEOID":"2502150250","STATE":"25","COUNTY":"021"}},{"type":"Feature","geometry":null,"properties":{"NAME":"Ashfield town","BASENAME":"Ashfield","GEOID":"2501102095","STATE":"25","COUNTY":"011"}},{"type":"Feature","geometry":null,"properties":{"NAME":"Shutesbury town","BASENAME":"Shutesbury","GEOID":"2501161905","STATE":"25","COUNTY":"011"}},{"type":"Feature","geometry":null,"properties":{"NAME":"Acushnet town","BASENAME":"Acushnet","GEOID":"2500500520","STATE":"25","COUNTY":"005"}},{"type":"Feature","geometry":null,"properties":{"NAME":"Warren town","BASENAME":"Warren","GEOID":"2502773090","STATE":"25","COUNTY":"027"}},{"type":"Feature","geometry":null,"properties":{"NAME":"West Brookfield town","BASENAME":"West Brookfield","GEOID":"2502775400","STATE":"25","COUNTY":"027"}},{"type":"Feature","geometry":null,"properties":{"NAME":"Westminster town","BASENAME":"Westminster","GEOID":"2502777010","STATE":"25","COUNTY":"027"}},{"type":"Feature","geometry":null,"properties":{"NAME":"Edgartown town","BASENAME":"Edgartown","GEOID":"2500721150","STATE":"25","COUNTY":"007"}},{"type":"Feature","geometry":null,"properties":{"NAME":"Chilmark town","BASENAME":"Chilmark","GEOID":"2500713800","STATE":"25","COUNTY":"007"}},{"type":"Feature","geometry":null,"properties":{"NAME":"Monterey town","BASENAME":"Monterey","GEOID":"2500342460","STATE":"25","COUNTY":"003"}},{"type":"Feature","geometry":null,"properties":{"NAME":"Mount Washington town","BASENAME":"Mount Washington","GEOID":"2500343300","STATE":"25","COUNTY":"003"}},{"type":"Feature","geometry":null,"properties":{"NAME":"New Marlborough town","BASENAME":"New Marlborough","GEOID":"2500345420","STATE":"25","COUNTY":"003"}},{"type":"Feature","geometry":null,"properties":{"NAME":"North Adams city","BASENAME":"North Adams","GEOID":"2500346225","STATE":"25","COUNTY":"003"}},{"type":"Feature","geometry":null,"properties":{"NAME":"Dartmouth town","BASENAME":"Dartmouth","GEOID":"2500516425","STATE":"25","COUNTY":"005"}},{"type":"Feature","geometry":null,"properties":{"NAME":"Freetown town","BASENAME":"Freetown","GEOID":"2500525240","STATE":"25","COUNTY":"005"}},{"type":"Feature","geometry":null,"properties":{"NAME":"Raynham town","BASENAME":"Raynham","GEOID":"2500556060","STATE":"25","COUNTY":"005"}},{"type":"Feature","geometry":null,"properties":{"NAME":"Swansea town","BASENAME":"Swansea","GEOID":"2500568750","STATE":"25","COUNTY":"005"}},{"type":"Feature","geometry":null,"properties":{"NAME":"Erving town","BASENAME":"Erving","GEOID":"2501121780","STATE":"25","COUNTY":"011"}},{"type":"Feature","geometry":null,"properties":{"NAME":"Greenfield city","BASENAME":"Greenfield","GEOID":"2501127060","STATE":"25","COUNTY":"011"}},{"type":"Feature","geometry":null,"properties":{"NAME":"Monson town","BASENAME":"Monson","GEOID":"2501342145","STATE":"25","COUNTY":"013"}},{"type":"Feature","geometry":null,"properties":{"NAME":"Southwick town","BASENAME":"Southwick","GEOID":"2501365825","STATE":"25","COUNTY":"013"}},{"type":"Feature","geometry":null,"properties":{"NAME":"Pelham town","BASENAME":"Pelham","GEOID":"2501552560","STATE":"25","COUNTY":"015"}},{"type":"Feature","geometry":null,"properties":{"NAME":"Wellesley town","BASENAME":"Wellesley","GEOID":"2502174175","STATE":"25","COUNTY":"021"}},{"type":"Feature","geometry":null,"properties":{"NAME":"Templeton town","BASENAME":"Templeton","GEOID":"2502769275","STATE":"25","COUNTY":"027"}},{"type":"Feature","geometry":null,"properties":{"NAME":"Kingston town","BASENAME":"Kingston","GEOID":"2502333220","STATE":"25","COUNTY":"023"}},{"type":"Feature","geometry":null,"properties":{"NAME":"Marion town","BASENAME":"Marion","GEOID":"2502338540","STATE":"25","COUNTY":"023"}},{"type":"Feature","geometry":null,"properties":{"NAME":"Mattapoisett town","BASENAME":"Mattapoisett","GEOID":"2502339450","STATE":"25","COUNTY":"023"}},{"type":"Feature","geometry":null,"properties":{"NAME":"Pembroke town","BASENAME":"Pembroke","GEOID":"2502352630","STATE":"25","COUNTY":"023"}},{"type":"Feature","geometry":null,"properties":{"NAME":"Rockland town","BASENAME":"Rockland","GEOID":"2502357775","STATE":"25","COUNTY":"023"}},{"type":"Feature","geometry":null,"properties":{"NAME":"Auburn town","BASENAME":"Auburn","GEOID":"2502702760","STATE":"25","COUNTY":"027"}},{"type":"Feature","geometry":null,"properties":{"NAME":"Blackstone town","BASENAME":"Blackstone","GEOID":"2502706015","STATE":"25","COUNTY":"027"}},{"type":"Feature","geometry":null,"properties":{"NAME":"Holyoke city","BASENAME":"Holyoke","GEOID":"2501330840","STATE":"25","COUNTY":"013"}},{"type":"Feature","geometry":null,"properties":{"NAME":"Ludlow town","BASENAME":"Ludlow","GEOID":"2501337175","STATE":"25","COUNTY":"013"}},{"type":"Feature","geometry":null,"properties":{"NAME":"Montgomery town","BASENAME":"Montgomery","GEOID":"2501342530","STATE":"25","COUNTY":"013"}},{"type":"Feature","geometry":null,"properties":{"NAME":"Springfield city","BASENAME":"Springfield","GEOID":"2501367000","STATE":"25","COUNTY":"013"}},{"type":"Feature","geometry":null,"properties":{"NAME":"Rutland town","BASENAME":"Rutland","GEOID":"2502758825","STATE":"25","COUNTY":"027"}},{"type":"Feature","geometry":null,"properties":{"NAME":"Spencer town","BASENAME":"Spencer","GEOID":"2502766105","STATE":"25","COUNTY":"027"}},{"type":"Feature","geometry":null,"properties":{"NAME":"Huntington town","BASENAME":"Huntington","GEOID":"2501531785","STATE":"25","COUNTY":"015"}},{"type":"Feature","geometry":null,"properties":{"NAME":"Salem city","BASENAME":"Salem","GEOID":"2500959105","STATE":"25","COUNTY":"009"}},{"type":"Feature","geometry":null,"properties":{"NAME":"Abington town","BASENAME":"Abington","GEOID":"2502300170","STATE":"25","COUNTY":"023"}},{"type":"Feature","geometry":null,"properties":{"NAME":"Windsor town","BASENAME":"Windsor","GEOID":"2500380685","STATE":"25","COUNTY":"003"}},{"type":"Feature","geometry":null,"properties":{"NAME":"Stockbridge town","BASENAME":"Stockbridge","GEOID":"2500367595","STATE":"25","COUNTY":"003"}},{"type":"Feature","geometry":null,"properties":{"NAME":"Washington town","BASENAME":"Washington","GEOID":"2500373335","STATE":"25","COUNTY":"003"}},{"type":"Feature","geometry":null,"properties":{"NAME":"West Stockbridge town","BASENAME":"West Stockbridge","GEOID":"2500377990","STATE":"25","COUNTY":"003"}},{"type":"Feature","geometry":null,"properties":{"NAME":"Deerfield town","BASENAME":"Deerfield","GEOID":"2501116670","STATE":"25","COUNTY":"011"}},{"type":"Feature","geometry":null,"properties":{"NAME":"Monroe town","BASENAME":"Monroe","GEOID":"2501142040","STATE":"25","COUNTY":"011"}},{"type":"Feature","geometry":null,"properties":{"NAME":"Groveland town","BASENAME":"Groveland","GEOID":"2500927620","STATE":"25","COUNTY":"009"}},{"type":"Feature","geometry":null,"properties":{"NAME":"Hudson town","BASENAME":"Hudson","GEOID":"2501731540","STATE":"25","COUNTY":"017"}},{"type":"Feature","geometry":null,"properties":{"NAME":"Malden city","BASENAME":"Malden","GEOID":"2501737875","STATE":"25","COUNTY":"017"}},{"type":"Feature","geometry":null,"properties":{"NAME":"Bourne town","BASENAME":"Bourne","GEOID":"2500107175","STATE":"25","COUNTY":"001"}},{"type":"Feature","geometry":null,"properties":{"NAME":"Mashpee town","BASENAME":"Mashpee","GEOID":"2500139100","STATE":"25","COUNTY":"001"}},{"type":"Feature","geometry":null,"properties":{"NAME":"Sandwich town","BASENAME":"Sandwich","GEOID":"2500159735","STATE":"25","COUNTY":"001"}},{"type":"Feature","geometry":null,"properties":{"NAME":"Yarmouth town","BASENAME":"Yarmouth","GEOID":"2500182525","STATE":"25","COUNTY":"001"}},{"type":"Feature","geometry":null,"properties":{"NAME":"County subdivisions not defined","BASENAME":"County subdivisions not defined","GEOID":"2500100000","STATE":"25","COUNTY":"001"}},{"type":"Feature","geometry":null,"properties":{"NAME":"Seekonk town","BASENAME":"Seekonk","GEOID":"2500560645","STATE":"25","COUNTY":"005"}},{"type":"Feature","geometry":null,"properties":{"NAME":"Berkley town","BASENAME":"Berkley","GEOID":"2500505280","STATE":"25","COUNTY":"005"}},{"type":"Feature","geometry":null,"properties":{"NAME":"Hubbardston town","BASENAME":"Hubbardston","GEOID":"2502731435","STATE":"25","COUNTY":"027"}},{"type":"Feature","geometry":null,"properties":{"NAME":"County subdivisions not defined","BASENAME":"County subdivisions not defined","GEOID":"2502300000","STATE":"25","COUNTY":"023"}},{"type":"Feature","geometry":null,"properties":{"NAME":"Uxbridge town","BASENAME":"Uxbridge","GEOID":"2502771620","STATE":"25","COUNTY":"027"}},{"type":"Feature","geometry":null,"properties":{"NAME":"Winchendon town","BASENAME":"Winchendon","GEOID":"2502780405","STATE":"25","COUNTY":"027"}},{"type":"Feature","geometry":null,"properties":{"NAME":"Somerville city","BASENAME":"Somerville","GEOID":"2501762535","STATE":"25","COUNTY":"017"}},{"type":"Feature","geometry":null,"properties":{"NAME":"Maynard town","BASENAME":"Maynard","GEOID":"2501739625","STATE":"25","COUNTY":"017"}},{"type":"Feature","geometry":null,"properties":{"NAME":"Medford city","BASENAME":"Medford","GEOID":"2501739835","STATE":"25","COUNTY":"017"}},{"type":"Feature","geometry":null,"properties":{"NAME":"Fitchburg city","BASENAME":"Fitchburg","GEOID":"2502723875","STATE":"25","COUNTY":"027"}},{"type":"Feature","geometry":null,"properties":{"NAME":"Hatfield town","BASENAME":"Hatfield","GEOID":"2501529265","STATE":"25","COUNTY":"015"}},{"type":"Feature","geometry":null,"properties":{"NAME":"Lanesborough town","BASENAME":"Lanesborough","GEOID":"2500334340","STATE":"25","COUNTY":"003"}},{"type":"Feature","geometry":null,"properties":{"NAME":"Marblehead town","BASENAME":"Marblehead","GEOID":"2500938400","STATE":"25","COUNTY":"009"}},{"type":"Feature","geometry":null,"properties":{"NAME":"Montague town","BASENAME":"Montague","GEOID":"2501142285","STATE":"25","COUNTY":"011"}},{"type":"Feature","geometry":null,"properties":{"NAME":"Shelburne town","BASENAME":"Shelburne","GEOID":"2501161135","STATE":"25","COUNTY":"011"}},{"type":"Feature","geometry":null,"properties":{"NAME":"Worthington town","BASENAME":"Worthington","GEOID":"2501582175","STATE":"25","COUNTY":"015"}},{"type":"Feature","geometry":null,"properties":{"NAME":"Danvers town","BASENAME":"Danvers","GEOID":"2500916250","STATE":"25","COUNTY":"009"}},{"type":"Feature","geometry":null,"properties":{"NAME":"Hamilton town","BASENAME":"Hamilton","GEOID":"2500927900","STATE":"25","COUNTY":"009"}},{"type":"Feature","geometry":null,"properties":{"NAME":"Newbury town","BASENAME":"Newbury","GEOID":"2500945175","STATE":"25","COUNTY":"009"}},{"type":"Feature","geometry":null,"properties":{"NAME":"Alford town","BASENAME":"Alford","GEOID":"2500300975","STATE":"25","COUNTY":"003"}},{"type":"Feature","geometry":null,"properties":{"NAME":"Chatham town","BASENAME":"Chatham","GEOID":"2500112995","STATE":"25","COUNTY":"001"}},{"type":"Feature","geometry":null,"properties":{"NAME":"Harwich town","BASENAME":"Harwich","GEOID":"2500129020","STATE":"25","COUNTY":"001"}},{"type":"Feature","geometry":null,"properties":{"NAME":"Provincetown town","BASENAME":"Provincetown","GEOID":"2500155500","STATE":"25","COUNTY":"001"}},{"type":"Feature","geometry":null,"properties":{"NAME":"Truro town","BASENAME":"Truro","GEOID":"2500170605","STATE":"25","COUNTY":"001"}},{"type":"Feature","geometry":null,"properties":{"NAME":"Dennis town","BASENAME":"Dennis","GEOID":"2500116775","STATE":"25","COUNTY":"001"}},{"type":"Feature","geometry":null,"properties":{"NAME":"Eastham town","BASENAME":"Eastham","GEOID":"2500119295","STATE":"25","COUNTY":"001"}},{"type":"Feature","geometry":null,"properties":{"NAME":"Palmer Town city","BASENAME":"Palmer Town","GEOID":"2501352144","STATE":"25","COUNTY":"013"}},{"type":"Feature","geometry":null,"properties":{"NAME":"Russell town","BASENAME":"Russell","GEOID":"2501358650","STATE":"25","COUNTY":"013"}},{"type":"Feature","geometry":null,"properties":{"NAME":"Tolland town","BASENAME":"Tolland","GEOID":"2501370045","STATE":"25","COUNTY":"013"}},{"type":"Feature","geometry":null,"properties":{"NAME":"Leyden town","BASENAME":"Leyden","GEOID":"2501135285","STATE":"25","COUNTY":"011"}},{"type":"Feature","geometry":null,"properties":{"NAME":"New Salem town","BASENAME":"New Salem","GEOID":"2501145490","STATE":"25","COUNTY":"011"}},{"type":"Feature","geometry":null,"properties":{"NAME":"Orange town","BASENAME":"Orange","GEOID":"2501151265","STATE":"25","COUNTY":"011"}},{"type":"Feature","geometry":null,"properties":{"NAME":"Longmeadow town","BASENAME":"Longmeadow","GEOID":"2501336300","STATE":"25","COUNTY":"013"}},{"type":"Feature","geometry":null,"properties":{"NAME":"Gloucester city","BASENAME":"Gloucester","GEOID":"2500926150","STATE":"25","COUNTY":"009"}},{"type":"Feature","geometry":null,"properties":{"NAME":"Lowell city","BASENAME":"Lowell","GEOID":"2501737000","STATE":"25","COUNTY":"017"}},{"type":"Feature","geometry":null,"properties":{"NAME":"Billerica town","BASENAME":"Billerica","GEOID":"2501705805","STATE":"25","COUNTY":"017"}},{"type":"Feature","geometry":null,"properties":{"NAME":"Groton town","BASENAME":"Groton","GEOID":"2501727480","STATE":"25","COUNTY":"017"}},{"type":"Feature","geometry":null,"properties":{"NAME":"Reading town","BASENAME":"Reading","GEOID":"2501756130","STATE":"25","COUNTY":"017"}},{"type":"Feature","geometry":null,"properties":{"NAME":"Townsend town","BASENAME":"Townsend","GEOID":"2501770360","STATE":"25","COUNTY":"017"}},{"type":"Feature","geometry":null,"properties":{"NAME":"Waltham city","BASENAME":"Waltham","GEOID":"2501772600","STATE":"25","COUNTY":"017"}},{"type":"Feature","geometry":null,"properties":{"NAME":"Weston town","BASENAME":"Weston","GEOID":"2501777255","STATE":"25","COUNTY":"017"}},{"type":"Feature","geometry":null,"properties":{"NAME":"Wellfleet town","BASENAME":"Wellfleet","GEOID":"2500174385","STATE":"25","COUNTY":"001"}},{"type":"Feature","geometry":null,"properties":{"NAME":"Saugus town","BASENAME":"Saugus","GEOID":"2500960015","STATE":"25","COUNTY":"009"}},{"type":"Feature","geometry":null,"properties":{"NAME":"Topsfield town","BASENAME":"Topsfield","GEOID":"2500970150","STATE":"25","COUNTY":"009"}},{"type":"Feature","geometry":null,"properties":{"NAME":"West Newbury town","BASENAME":"West Newbury","GEOID":"2500977150","STATE":"25","COUNTY":"009"}},{"type":"Feature","geometry":null,"properties":{"NAME":"Lenox town","BASENAME":"Lenox","GEOID":"2500334970","STATE":"25","COUNTY":"003"}},{"type":"Feature","geometry":null,"properties":{"NAME":"New Ashford town","BASENAME":"New Ashford","GEOID":"2500344385","STATE":"25","COUNTY":"003"}},{"type":"Feature","geometry":null,"properties":{"NAME":"Otis town","BASENAME":"Otis","GEOID":"2500351580","STATE":"25","COUNTY":"003"}},{"type":"Feature","geometry":null,"properties":{"NAME":"Sandisfield town","BASENAME":"Sandisfield","GEOID":"2500359665","STATE":"25","COUNTY":"003"}},{"type":"Feature","geometry":null,"properties":{"NAME":"Williamstown town","BASENAME":"Williamstown","GEOID":"2500379985","STATE":"25","COUNTY":"003"}},{"type":"Feature","geometry":null,"properties":{"NAME":"Chesterfield town","BASENAME":"Chesterfield","GEOID":"2501513590","STATE":"25","COUNTY":"015"}},{"type":"Feature","geometry":null,"properties":{"NAME":"Cummington town","BASENAME":"Cummington","GEOID":"2501516040","STATE":"25","COUNTY":"015"}},{"type":"Feature","geometry":null,"properties":{"NAME":"Goshen town","BASENAME":"Goshen","GEOID":"2501526290","STATE":"25","COUNTY":"015"}},{"type":"Feature","geometry":null,"properties":{"NAME":"New Braintree town","BASENAME":"New Braintree","GEOID":"2502745105","STATE":"25","COUNTY":"027"}},{"type":"Feature","geometry":null,"properties":{"NAME":"Northbridge town","BASENAME":"Northbridge","GEOID":"2502746925","STATE":"25","COUNTY":"027"}},{"type":"Feature","geometry":null,"properties":{"NAME":"Holden town","BASENAME":"Holden","GEOID":"2502730560","STATE":"25","COUNTY":"027"}},{"type":"Feature","geometry":null,"properties":{"NAME":"Southborough town","BASENAME":"Southborough","GEOID":"2502763165","STATE":"25","COUNTY":"027"}},{"type":"Feature","geometry":null,"properties":{"NAME":"Leverett town","BASENAME":"Leverett","GEOID":"2501135180","STATE":"25","COUNTY":"011"}},{"type":"Feature","geometry":null,"properties":{"NAME":"Westborough town","BASENAME":"Westborough","GEOID":"2502775015","STATE":"25","COUNTY":"027"}},{"type":"Feature","geometry":null,"properties":{"NAME":"Worcester city","BASENAME":"Worcester","GEOID":"2502782000","STATE":"25","COUNTY":"027"}},{"type":"Feature","geometry":null,"properties":{"NAME":"Upton town","BASENAME":"Upton","GEOID":"2502771480","STATE":"25","COUNTY":"027"}},{"type":"Feature","geometry":null,"properties":{"NAME":"County subdivisions not defined","BASENAME":"County subdivisions not defined","GEOID":"2502500000","STATE":"25","COUNTY":"025"}},{"type":"Feature","geometry":null,"properties":{"NAME":"Revere city","BASENAME":"Revere","GEOID":"2502556585","STATE":"25","COUNTY":"025"}},{"type":"Feature","geometry":null,"properties":{"NAME":"Gosnold town","BASENAME":"Gosnold","GEOID":"2500726325","STATE":"25","COUNTY":"007"}},{"type":"Feature","geometry":null,"properties":{"NAME":"Tisbury town","BASENAME":"Tisbury","GEOID":"2500769940","STATE":"25","COUNTY":"007"}},{"type":"Feature","geometry":null,"properties":{"NAME":"Ipswich town","BASENAME":"Ipswich","GEOID":"2500932310","STATE":"25","COUNTY":"009"}},{"type":"Feature","geometry":null,"properties":{"NAME":"Middleton town","BASENAME":"Middleton","GEOID":"2500941095","STATE":"25","COUNTY":"009"}},{"type":"Feature","geometry":null,"properties":{"NAME":"Leicester town","BASENAME":"Leicester","GEOID":"2502734795","STATE":"25","COUNTY":"027"}},{"type":"Feature","geometry":null,"properties":{"NAME":"North Brookfield town","BASENAME":"North Brookfield","GEOID":"2502747135","STATE":"25","COUNTY":"027"}},{"type":"Feature","geometry":null,"properties":{"NAME":"Rehoboth town","BASENAME":"Rehoboth","GEOID":"2500556375","STATE":"25","COUNTY":"005"}},{"type":"Feature","geometry":null,"properties":{"NAME":"Somerset town","BASENAME":"Somerset","GEOID":"2500562430","STATE":"25","COUNTY":"005"}},{"type":"Feature","geometry":null,"properties":{"NAME":"Bridgewater Town city","BASENAME":"Bridgewater Town","GEOID":"2502308130","STATE":"25","COUNTY":"023"}},{"type":"Feature","geometry":null,"properties":{"NAME":"Hardwick town","BASENAME":"Hardwick","GEOID":"2502728740","STATE":"25","COUNTY":"027"}},{"type":"Feature","geometry":null,"properties":{"NAME":"Milford town","BASENAME":"Milford","GEOID":"2502741165","STATE":"25","COUNTY":"027"}},{"type":"Feature","geometry":null,"properties":{"NAME":"Hanson town","BASENAME":"Hanson","GEOID":"2502328495","STATE":"25","COUNTY":"023"}},{"type":"Feature","geometry":null,"properties":{"NAME":"West Bridgewater town","BASENAME":"West Bridgewater","GEOID":"2502375260","STATE":"25","COUNTY":"023"}},{"type":"Feature","geometry":null,"properties":{"NAME":"Whitman town","BASENAME":"Whitman","GEOID":"2502379530","STATE":"25","COUNTY":"023"}},{"type":"Feature","geometry":null,"properties":{"NAME":"Wilbraham town","BASENAME":"Wilbraham","GEOID":"2501379740","STATE":"25","COUNTY":"013"}},{"type":"Feature","geometry":null,"properties":{"NAME":"Barnstable Town city","BASENAME":"Barnstable Town","GEOID":"2500103690","STATE":"25","COUNTY":"001"}},{"type":"Feature","geometry":null,"properties":{"NAME":"Brewster town","BASENAME":"Brewster","GEOID":"2500107980","STATE":"25","COUNTY":"001"}},{"type":"Feature","geometry":null,"properties":{"NAME":"Falmouth town","BASENAME":"Falmouth","GEOID":"2500123105","STATE":"25","COUNTY":"001"}},{"type":"Feature","geometry":null,"properties":{"NAME":"Orleans town","BASENAME":"Orleans","GEOID":"2500151440","STATE":"25","COUNTY":"001"}},{"type":"Feature","geometry":null,"properties":{"NAME":"Charlemont town","BASENAME":"Charlemont","GEOID":"2501112505","STATE":"25","COUNTY":"011"}},{"type":"Feature","geometry":null,"properties":{"NAME":"Colrain town","BASENAME":"Colrain","GEOID":"2501114885","STATE":"25","COUNTY":"011"}},{"type":"Feature","geometry":null,"properties":{"NAME":"Natick town","BASENAME":"Natick","GEOID":"2501743895","STATE":"25","COUNTY":"017"}},{"type":"Feature","geometry":null,"properties":{"NAME":"North Reading town","BASENAME":"North Reading","GEOID":"2501748955","STATE":"25","COUNTY":"017"}},{"type":"Feature","geometry":null,"properties":{"NAME":"Pepperell town","BASENAME":"Pepperell","GEOID":"2501752805","STATE":"25","COUNTY":"017"}},{"type":"Feature","geometry":null,"properties":{"NAME":"Sudbury town","BASENAME":"Sudbury","GEOID":"2501768260","STATE":"25","COUNTY":"017"}},{"type":"Feature","geometry":null,"properties":{"NAME":"Tewksbury town","BASENAME":"Tewksbury","GEOID":"2501769415","STATE":"25","COUNTY":"017"}},{"type":"Feature","geometry":null,"properties":{"NAME":"Tyngsborough town","BASENAME":"Tyngsborough","GEOID":"2501771025","STATE":"25","COUNTY":"017"}},{"type":"Feature","geometry":null,"properties":{"NAME":"Watertown city","BASENAME":"Watertown","GEOID":"2501773405","STATE":"25","COUNTY":"017"}},{"type":"Feature","geometry":null,"properties":{"NAME":"Wayland town","BASENAME":"Wayland","GEOID":"2501773790","STATE":"25","COUNTY":"017"}},{"type":"Feature","geometry":null,"properties":{"NAME":"Wilmington town","BASENAME":"Wilmington","GEOID":"2501780230","STATE":"25","COUNTY":"017"}},{"type":"Feature","geometry":null,"properties":{"NAME":"Sherborn town","BASENAME":"Sherborn","GEOID":"2501761380","STATE":"25","COUNTY":"017"}},{"type":"Feature","geometry":null,"properties":{"NAME":"Shirley town","BASENAME":"Shirley","GEOID":"2501761590","STATE":"25","COUNTY":"017"}},{"type":"Feature","geometry":null,"properties":{"NAME":"Sterling town","BASENAME":"Sterling","GEOID":"2502767385","STATE":"25","COUNTY":"027"}},{"type":"Feature","geometry":null,"properties":{"NAME":"West Springfield Town city","BASENAME":"West Springfield Town","GEOID":"2501377890","STATE":"25","COUNTY":"013"}},{"type":"Feature","geometry":null,"properties":{"NAME":"Oakham town","BASENAME":"Oakham","GEOID":"2502750670","STATE":"25","COUNTY":"027"}},{"type":"Feature","geometry":null,"properties":{"NAME":"Oxford town","BASENAME":"Oxford","GEOID":"2502751825","STATE":"25","COUNTY":"027"}},{"type":"Feature","geometry":null,"properties":{"NAME":"Paxton town","BASENAME":"Paxton","GEOID":"2502752420","STATE":"25","COUNTY":"027"}},{"type":"Feature","geometry":null,"properties":{"NAME":"Middlefield town","BASENAME":"Middlefield","GEOID":"2501540990","STATE":"25","COUNTY":"015"}},{"type":"Feature","geometry":null,"properties":{"NAME":"Middleborough town","BASENAME":"Middleborough","GEOID":"2502340850","STATE":"25","COUNTY":"023"}},{"type":"Feature","geometry":null,"properties":{"NAME":"Rochester town","BASENAME":"Rochester","GEOID":"2502357600","STATE":"25","COUNTY":"023"}},{"type":"Feature","geometry":null,"properties":{"NAME":"Athol town","BASENAME":"Athol","GEOID":"2502702480","STATE":"25","COUNTY":"027"}},{"type":"Feature","geometry":null,"properties":{"NAME":"Hopkinton town","BASENAME":"Hopkinton","GEOID":"2501731085","STATE":"25","COUNTY":"017"}},{"type":"Feature","geometry":null,"properties":{"NAME":"Dudley town","BASENAME":"Dudley","GEOID":"2502717685","STATE":"25","COUNTY":"027"}},{"type":"Feature","geometry":null,"properties":{"NAME":"Marlborough city","BASENAME":"Marlborough","GEOID":"2501738715","STATE":"25","COUNTY":"017"}},{"type":"Feature","geometry":null,"properties":{"NAME":"Newton city","BASENAME":"Newton","GEOID":"2501745560","STATE":"25","COUNTY":"017"}},{"type":"Feature","geometry":null,"properties":{"NAME":"Peru town","BASENAME":"Peru","GEOID":"2500353050","STATE":"25","COUNTY":"003"}},{"type":"Feature","geometry":null,"properties":{"NAME":"Pittsfield city","BASENAME":"Pittsfield","GEOID":"2500353960","STATE":"25","COUNTY":"003"}},{"type":"Feature","geometry":null,"properties":{"NAME":"Richmond town","BASENAME":"Richmond","GEOID":"2500356795","STATE":"25","COUNTY":"003"}},{"type":"Feature","geometry":null,"properties":{"NAME":"Sheffield town","BASENAME":"Sheffield","GEOID":"2500361065","STATE":"25","COUNTY":"003"}},{"type":"Feature","geometry":null,"properties":{"NAME":"Granby town","BASENAME":"Granby","GEOID":"2501526535","STATE":"25","COUNTY":"015"}},{"type":"Feature","geometry":null,"properties":{"NAME":"Berlin town","BASENAME":"Berlin","GEOID":"2502705490","STATE":"25","COUNTY":"027"}},{"type":"Feature","geometry":null,"properties":{"NAME":"Chelsea city","BASENAME":"Chelsea","GEOID":"2502513205","STATE":"25","COUNTY":"025"}},{"type":"Feature","geometry":null,"properties":{"NAME":"Framingham city","BASENAME":"Framingham","GEOID":"2501724960","STATE":"25","COUNTY":"017"}},{"type":"Feature","geometry":null,"properties":{"NAME":"Sunderland town","BASENAME":"Sunderland","GEOID":"2501168400","STATE":"25","COUNTY":"011"}},{"type":"Feature","geometry":null,"properties":{"NAME":"Warwick town","BASENAME":"Warwick","GEOID":"2501173265","STATE":"25","COUNTY":"011"}},{"type":"Feature","geometry":null,"properties":{"NAME":"Gill town","BASENAME":"Gill","GEOID":"2501125730","STATE":"25","COUNTY":"011"}},{"type":"Feature","geometry":null,"properties":{"NAME":"Wendell town","BASENAME":"Wendell","GEOID":"2501174525","STATE":"25","COUNTY":"011"}},{"type":"Feature","geometry":null,"properties":{"NAME":"Brookfield town","BASENAME":"Brookfield","GEOID":"2502709105","STATE":"25","COUNTY":"027"}},{"type":"Feature","geometry":null,"properties":{"NAME":"Whately town","BASENAME":"Whately","GEOID":"2501179110","STATE":"25","COUNTY":"011"}},{"type":"Feature","geometry":null,"properties":{"NAME":"Attleboro city","BASENAME":"Attleboro","GEOID":"2500502690","STATE":"25","COUNTY":"005"}},{"type":"Feature","geometry":null,"properties":{"NAME":"Dighton town","BASENAME":"Dighton","GEOID":"2500516950","STATE":"25","COUNTY":"005"}},{"type":"Feature","geometry":null,"properties":{"NAME":"Boston city","BASENAME":"Boston","GEOID":"2502507000","STATE":"25","COUNTY":"025"}},{"type":"Feature","geometry":null,"properties":{"NAME":"Winthrop Town city","BASENAME":"Winthrop Town","GEOID":"2502581005","STATE":"25","COUNTY":"025"}},{"type":"Feature","geometry":null,"properties":{"NAME":"Wakefield town","BASENAME":"Wakefield","GEOID":"2501772215","STATE":"25","COUNTY":"017"}},{"type":"Feature","geometry":null,"properties":{"NAME":"Westford town","BASENAME":"Westford","GEOID":"2501776135","STATE":"25","COUNTY":"017"}},{"type":"Feature","geometry":null,"properties":{"NAME":"Winchester town","BASENAME":"Winchester","GEOID":"2501780510","STATE":"25","COUNTY":"017"}},{"type":"Feature","geometry":null,"properties":{"NAME":"Woburn city","BASENAME":"Woburn","GEOID":"2501781035","STATE":"25","COUNTY":"017"}},{"type":"Feature","geometry":null,"properties":{"NAME":"Easton town","BASENAME":"Easton","GEOID":"2500520100","STATE":"25","COUNTY":"005"}},{"type":"Feature","geometry":null,"properties":{"NAME":"Mansfield town","BASENAME":"Mansfield","GEOID":"2500538225","STATE":"25","COUNTY":"005"}},{"type":"Feature","geometry":null,"properties":{"NAME":"Florida town","BASENAME":"Florida","GEOID":"2500324120","STATE":"25","COUNTY":"003"}},{"type":"Feature","geometry":null,"properties":{"NAME":"Egremont town","BASENAME":"Egremont","GEOID":"2500321360","STATE":"25","COUNTY":"003"}},{"type":"Feature","geometry":null,"properties":{"NAME":"Great Barrington town","BASENAME":"Great Barrington","GEOID":"2500326815","STATE":"25","COUNTY":"003"}},{"type":"Feature","geometry":null,"properties":{"NAME":"Hancock town","BASENAME":"Hancock","GEOID":"2500328180","STATE":"25","COUNTY":"003"}},{"type":"Feature","geometry":null,"properties":{"NAME":"Sturbridge town","BASENAME":"Sturbridge","GEOID":"2502768155","STATE":"25","COUNTY":"027"}},{"type":"Feature","geometry":null,"properties":{"NAME":"Sutton town","BASENAME":"Sutton","GEOID":"2502768610","STATE":"25","COUNTY":"027"}},{"type":"Feature","geometry":null,"properties":{"NAME":"Hinsdale town","BASENAME":"Hinsdale","GEOID":"2500330315","STATE":"25","COUNTY":"003"}},{"type":"Feature","geometry":null,"properties":{"NAME":"Clarksburg town","BASENAME":"Clarksburg","GEOID":"2500314010","STATE":"25","COUNTY":"003"}},{"type":"Feature","geometry":null,"properties":{"NAME":"Dalton town","BASENAME":"Dalton","GEOID":"2500316180","STATE":"25","COUNTY":"003"}},{"type":"Feature","geometry":null,"properties":{"NAME":"West Tisbury town","BASENAME":"West Tisbury","GEOID":"2500778235","STATE":"25","COUNTY":"007"}},{"type":"Feature","geometry":null,"properties":{"NAME":"Oak Bluffs town","BASENAME":"Oak Bluffs","GEOID":"2500750390","STATE":"25","COUNTY":"007"}},{"type":"Feature","geometry":null,"properties":{"NAME":"Savoy town","BASENAME":"Savoy","GEOID":"2500360225","STATE":"25","COUNTY":"003"}},{"type":"Feature","geometry":null,"properties":{"NAME":"Tyringham town","BASENAME":"Tyringham","GEOID":"2500371095","STATE":"25","COUNTY":"003"}},{"type":"Feature","geometry":null,"properties":{"NAME":"Adams town","BASENAME":"Adams","GEOID":"2500300555","STATE":"25","COUNTY":"003"}},{"type":"Feature","geometry":null,"properties":{"NAME":"Cheshire town","BASENAME":"Cheshire","GEOID":"2500313345","STATE":"25","COUNTY":"003"}},{"type":"Feature","geometry":null,"properties":{"NAME":"Princeton town","BASENAME":"Princeton","GEOID":"2502755395","STATE":"25","COUNTY":"027"}},{"type":"Feature","geometry":null,"properties":{"NAME":"Royalston town","BASENAME":"Royalston","GEOID":"2502758580","STATE":"25","COUNTY":"027"}},{"type":"Feature","geometry":null,"properties":{"NAME":"Shrewsbury town","BASENAME":"Shrewsbury","GEOID":"2502761800","STATE":"25","COUNTY":"027"}},{"type":"Feature","geometry":null,"properties":{"NAME":"Southbridge Town city","BASENAME":"Southbridge Town","GEOID":"2502763345","STATE":"25","COUNTY":"027"}},{"type":"Feature","geometry":null,"properties":{"NAME":"Becket town","BASENAME":"Becket","GEOID":"2500304545","STATE":"25","COUNTY":"003"}},{"type":"Feature","geometry":null,"properties":{"NAME":"Lee town","BASENAME":"Lee","GEOID":"2500334655","STATE":"25","COUNTY":"003"}},{"type":"Feature","geometry":null,"properties":{"NAME":"South Hadley town","BASENAME":"South Hadley","GEOID":"2501564145","STATE":"25","COUNTY":"015"}},{"type":"Feature","geometry":null,"properties":{"NAME":"East Longmeadow town","BASENAME":"East Longmeadow","GEOID":"2501319645","STATE":"25","COUNTY":"013"}},{"type":"Feature","geometry":null,"properties":{"NAME":"Halifax town","BASENAME":"Halifax","GEOID":"2502327795","STATE":"25","COUNTY":"023"}},{"type":"Feature","geometry":null,"properties":{"NAME":"Belchertown town","BASENAME":"Belchertown","GEOID":"2501504825","STATE":"25","COUNTY":"015"}},{"type":"Feature","geometry":null,"properties":{"NAME":"Easthampton city","BASENAME":"Easthampton","GEOID":"2501519365","STATE":"25","COUNTY":"015"}},{"type":"Feature","geometry":null,"properties":{"NAME":"Hadley town","BASENAME":"Hadley","GEOID":"2501527690","STATE":"25","COUNTY":"015"}},{"type":"Feature","geometry":null,"properties":{"NAME":"Ware town","BASENAME":"Ware","GEOID":"2501572880","STATE":"25","COUNTY":"015"}},{"type":"Feature","geometry":null,"properties":{"NAME":"Williamsburg town","BASENAME":"Williamsburg","GEOID":"2501579915","STATE":"25","COUNTY":"015"}},{"type":"Feature","geometry":null,"properties":{"NAME":"Bernardston town","BASENAME":"Bernardston","GEOID":"2501105560","STATE":"25","COUNTY":"011"}},{"type":"Feature","geometry":null,"properties":{"NAME":"East Brookfield town","BASENAME":"East Brookfield","GEOID":"2502718560","STATE":"25","COUNTY":"027"}},{"type":"Feature","geometry":null,"properties":{"NAME":"Grafton town","BASENAME":"Grafton","GEOID":"2502726430","STATE":"25","COUNTY":"027"}},{"type":"Feature","geometry":null,"properties":{"NAME":"Arlington town","BASENAME":"Arlington","GEOID":"2501701605","STATE":"25","COUNTY":"017"}},{"type":"Feature","geometry":null,"properties":{"NAME":"Ashby town","BASENAME":"Ashby","GEOID":"2501701955","STATE":"25","COUNTY":"017"}},{"type":"Feature","geometry":null,"properties":{"NAME":"Ashland town","BASENAME":"Ashland","GEOID":"2501702130","STATE":"25","COUNTY":"017"}},{"type":"Feature","geometry":null,"properties":{"NAME":"Ayer town","BASENAME":"Ayer","GEOID":"2501703005","STATE":"25","COUNTY":"017"}},{"type":"Feature","geometry":null,"properties":{"NAME":"Hull town","BASENAME":"Hull","GEOID":"2502331645","STATE":"25","COUNTY":"023"}},{"type":"Feature","geometry":null,"properties":{"NAME":"Belmont town","BASENAME":"Belmont","GEOID":"2501705070","STATE":"25","COUNTY":"017"}},{"type":"Feature","geometry":null,"properties":{"NAME":"Cambridge city","BASENAME":"Cambridge","GEOID":"2501711000","STATE":"25","COUNTY":"017"}},{"type":"Feature","geometry":null,"properties":{"NAME":"Chelmsford town","BASENAME":"Chelmsford","GEOID":"2501713135","STATE":"25","COUNTY":"017"}},{"type":"Feature","geometry":null,"properties":{"NAME":"Everett city","BASENAME":"Everett","GEOID":"2501721990","STATE":"25","COUNTY":"017"}},{"type":"Feature","geometry":null,"properties":{"NAME":"Holliston town","BASENAME":"Holliston","GEOID":"2501730700","STATE":"25","COUNTY":"017"}},{"type":"Feature","geometry":null,"properties":{"NAME":"Brockton city","BASENAME":"Brockton","GEOID":"2502309000","STATE":"25","COUNTY":"023"}},{"type":"Feature","geometry":null,"properties":{"NAME":"Carver town","BASENAME":"Carver","GEOID":"2502311665","STATE":"25","COUNTY":"023"}},{"type":"Feature","geometry":null,"properties":{"NAME":"Hingham town","BASENAME":"Hingham","GEOID":"2502330210","STATE":"25","COUNTY":"023"}},{"type":"Feature","geometry":null,"properties":{"NAME":"Lakeville town","BASENAME":"Lakeville","GEOID":"2502333920","STATE":"25","COUNTY":"023"}},{"type":"Feature","geometry":null,"properties":{"NAME":"Plymouth town","BASENAME":"Plymouth","GEOID":"2502354310","STATE":"25","COUNTY":"023"}},{"type":"Feature","geometry":null,"properties":{"NAME":"Plympton town","BASENAME":"Plympton","GEOID":"2502354415","STATE":"25","COUNTY":"023"}},{"type":"Feature","geometry":null,"properties":{"NAME":"Scituate town","BASENAME":"Scituate","GEOID":"2502360330","STATE":"25","COUNTY":"023"}},{"type":"Feature","geometry":null,"properties":{"NAME":"Wales town","BASENAME":"Wales","GEOID":"2501372390","STATE":"25","COUNTY":"013"}},{"type":"Feature","geometry":null,"properties":{"NAME":"Braintree Town city","BASENAME":"Braintree Town","GEOID":"2502107740","STATE":"25","COUNTY":"021"}},{"type":"Feature","geometry":null,"properties":{"NAME":"Dedham town","BASENAME":"Dedham","GEOID":"2502116495","STATE":"25","COUNTY":"021"}},{"type":"Feature","geometry":null,"properties":{"NAME":"Franklin Town city","BASENAME":"Franklin Town","GEOID":"2502125172","STATE":"25","COUNTY":"021"}},{"type":"Feature","geometry":null,"properties":{"NAME":"Norfolk town","BASENAME":"Norfolk","GEOID":"2502146050","STATE":"25","COUNTY":"021"}},{"type":"Feature","geometry":null,"properties":{"NAME":"Quincy city","BASENAME":"Quincy","GEOID":"2502155745","STATE":"25","COUNTY":"021"}},{"type":"Feature","geometry":null,"properties":{"NAME":"Medfield town","BASENAME":"Medfield","GEOID":"2502139765","STATE":"25","COUNTY":"021"}},{"type":"Feature","geometry":null,"properties":{"NAME":"Lexington town","BASENAME":"Lexington","GEOID":"2501735215","STATE":"25","COUNTY":"017"}},{"type":"Feature","geometry":null,"properties":{"NAME":"Lincoln town","BASENAME":"Lincoln","GEOID":"2501735425","STATE":"25","COUNTY":"017"}},{"type":"Feature","geometry":null,"properties":{"NAME":"Littleton town","BASENAME":"Littleton","GEOID":"2501735950","STATE":"25","COUNTY":"017"}},{"type":"Feature","geometry":null,"properties":{"NAME":"Foxborough town","BASENAME":"Foxborough","GEOID":"2502124820","STATE":"25","COUNTY":"021"}},{"type":"Feature","geometry":null,"properties":{"NAME":"Merrimac town","BASENAME":"Merrimac","GEOID":"2500940430","STATE":"25","COUNTY":"009"}},{"type":"Feature","geometry":null,"properties":{"NAME":"North Andover town","BASENAME":"North Andover","GEOID":"2500946365","STATE":"25","COUNTY":"009"}},{"type":"Feature","geometry":null,"properties":{"NAME":"Rockport town","BASENAME":"Rockport","GEOID":"2500957880","STATE":"25","COUNTY":"009"}},{"type":"Feature","geometry":null,"properties":{"NAME":"Salisbury town","BASENAME":"Salisbury","GEOID":"2500959245","STATE":"25","COUNTY":"009"}},{"type":"Feature","geometry":null,"properties":{"NAME":"Swampscott town","BASENAME":"Swampscott","GEOID":"2500968645","STATE":"25","COUNTY":"009"}},{"type":"Feature","geometry":null,"properties":{"NAME":"Wenham town","BASENAME":"Wenham","GEOID":"2500974595","STATE":"25","COUNTY":"009"}},{"type":"Feature","geometry":null,"properties":{"NAME":"Peabody city","BASENAME":"Peabody","GEOID":"2500952490","STATE":"25","COUNTY":"009"}},{"type":"Feature","geometry":null,"properties":{"NAME":"North Attleborough Town city","BASENAME":"North Attleborough Town","GEOID":"2500546598","STATE":"25","COUNTY":"005"}},{"type":"Feature","geometry":null,"properties":{"NAME":"County subdivisions not defined","BASENAME":"County subdivisions not defined","GEOID":"2500900000","STATE":"25","COUNTY":"009"}},{"type":"Feature","geometry":null,"properties":{"NAME":"Amesbury city","BASENAME":"Amesbury","GEOID":"2500901185","STATE":"25","COUNTY":"009"}},{"type":"Feature","geometry":null,"properties":{"NAME":"Beverly city","BASENAME":"Beverly","GEOID":"2500905595","STATE":"25","COUNTY":"009"}},{"type":"Feature","geometry":null,"properties":{"NAME":"Weymouth Town city","BASENAME":"Weymouth Town","GEOID":"2502178972","STATE":"25","COUNTY":"021"}},{"type":"Feature","geometry":null,"properties":{"NAME":"Wrentham town","BASENAME":"Wrentham","GEOID":"2502182315","STATE":"25","COUNTY":"021"}},{"type":"Feature","geometry":null,"properties":{"NAME":"Sharon town","BASENAME":"Sharon","GEOID":"2502160785","STATE":"25","COUNTY":"021"}},{"type":"Feature","geometry":null,"properties":{"NAME":"Newburyport city","BASENAME":"Newburyport","GEOID":"2500945245","STATE":"25","COUNTY":"009"}},{"type":"Feature","geometry":null,"properties":{"NAME":"Rowley town","BASENAME":"Rowley","GEOID":"2500958405","STATE":"25","COUNTY":"009"}},{"type":"Feature","geometry":null,"properties":{"NAME":"Andover town","BASENAME":"Andover","GEOID":"2500901465","STATE":"25","COUNTY":"009"}},{"type":"Feature","geometry":null,"properties":{"NAME":"Boxford town","BASENAME":"Boxford","GEOID":"2500907420","STATE":"25","COUNTY":"009"}},{"type":"Feature","geometry":null,"properties":{"NAME":"Essex town","BASENAME":"Essex","GEOID":"2500921850","STATE":"25","COUNTY":"009"}},{"type":"Feature","geometry":null,"properties":{"NAME":"Lawrence city","BASENAME":"Lawrence","GEOID":"2500934550","STATE":"25","COUNTY":"009"}},{"type":"Feature","geometry":null,"properties":{"NAME":"Lynn city","BASENAME":"Lynn","GEOID":"2500937490","STATE":"25","COUNTY":"009"}},{"type":"Feature","geometry":null,"properties":{"NAME":"Lynnfield town","BASENAME":"Lynnfield","GEOID":"2500937560","STATE":"25","COUNTY":"009"}},{"type":"Feature","geometry":null,"properties":{"NAME":"Blandford town","BASENAME":"Blandford","GEOID":"2501306085","STATE":"25","COUNTY":"013"}},{"type":"Feature","geometry":null,"properties":{"NAME":"Manchester-by-the-Sea town","BASENAME":"Manchester-by-the-Sea","GEOID":"2500937995","STATE":"25","COUNTY":"009"}},{"type":"Feature","geometry":null,"properties":{"NAME":"Fall River city","BASENAME":"Fall River","GEOID":"2500523000","STATE":"25","COUNTY":"005"}},{"type":"Feature","geometry":null,"properties":{"NAME":"Taunton city","BASENAME":"Taunton","GEOID":"2500569170","STATE":"25","COUNTY":"005"}},{"type":"Feature","geometry":null,"properties":{"NAME":"Westport town","BASENAME":"Westport","GEOID":"2500577570","STATE":"25","COUNTY":"005"}},{"type":"Feature","geometry":null,"properties":{"NAME":"County subdivisions not defined","BASENAME":"County subdivisions not defined","GEOID":"2500500000","STATE":"25","COUNTY":"005"}},{"type":"Feature","geometry":null,"properties":{"NAME":"Methuen city","BASENAME":"Methuen","GEOID":"2500940675","STATE":"25","COUNTY":"009"}},{"type":"Feature","geometry":null,"properties":{"NAME":"Nahant town","BASENAME":"Nahant","GEOID":"2500943580","STATE":"25","COUNTY":"009"}},{"type":"Feature","geometry":null,"properties":{"NAME":"Chester town","BASENAME":"Chester","GEOID":"2501313485","STATE":"25","COUNTY":"013"}},{"type":"Feature","geometry":null,"properties":{"NAME":"Chicopee city","BASENAME":"Chicopee","GEOID":"2501313660","STATE":"25","COUNTY":"013"}},{"type":"Feature","geometry":null,"properties":{"NAME":"Granville town","BASENAME":"Granville","GEOID":"2501326675","STATE":"25","COUNTY":"013"}},{"type":"Feature","geometry":null,"properties":{"NAME":"Hampden town","BASENAME":"Hampden","GEOID":"2501328075","STATE":"25","COUNTY":"013"}},{"type":"Feature","geometry":null,"properties":{"NAME":"Melrose city","BASENAME":"Melrose","GEOID":"2501740115","STATE":"25","COUNTY":"017"}},{"type":"Feature","geometry":null,"properties":{"NAME":"Stoneham town","BASENAME":"Stoneham","GEOID":"2501767665","STATE":"25","COUNTY":"017"}},{"type":"Feature","geometry":null,"properties":{"NAME":"Stow town","BASENAME":"Stow","GEOID":"2501768050","STATE":"25","COUNTY":"017"}},{"type":"Feature","geometry":null,"properties":{"NAME":"Georgetown town","BASENAME":"Georgetown","GEOID":"2500925625","STATE":"25","COUNTY":"009"}},{"type":"Feature","geometry":null,"properties":{"NAME":"Haverhill city","BASENAME":"Haverhill","GEOID":"2500929405","STATE":"25","COUNTY":"009"}},{"type":"Feature","geometry":null,"properties":{"NAME":"Dunstable town","BASENAME":"Dunstable","GEOID":"2501717825","STATE":"25","COUNTY":"017"}},{"type":"Feature","geometry":null,"properties":{"NAME":"Nantucket town","BASENAME":"Nantucket","GEOID":"2501943790","STATE":"25","COUNTY":"019"}},{"type":"Feature","geometry":null,"properties":{"NAME":"County subdivisions not defined","BASENAME":"County subdivisions not defined","GEOID":"2501900000","STATE":"25","COUNTY":"019"}},{"type":"Feature","geometry":null,"properties":{"NAME":"Fairhaven town","BASENAME":"Fairhaven","GEOID":"2500522130","STATE":"25","COUNTY":"005"}},{"type":"Feature","geometry":null,"properties":{"NAME":"Amherst Town city","BASENAME":"Amherst Town","GEOID":"2501501370","STATE":"25","COUNTY":"015"}},{"type":"Feature","geometry":null,"properties":{"NAME":"Lunenburg town","BASENAME":"Lunenburg","GEOID":"2502737420","STATE":"25","COUNTY":"027"}},{"type":"Feature","geometry":null,"properties":{"NAME":"Mendon town","BASENAME":"Mendon","GEOID":"2502740255","STATE":"25","COUNTY":"027"}},{"type":"Feature","geometry":null,"properties":{"NAME":"Millbury town","BASENAME":"Millbury","GEOID":"2502741340","STATE":"25","COUNTY":"027"}},{"type":"Feature","geometry":null,"properties":{"NAME":"Leominster city","BASENAME":"Leominster","GEOID":"2502735075","STATE":"25","COUNTY":"027"}},{"type":"Feature","geometry":null,"properties":{"NAME":"Boxborough town","BASENAME":"Boxborough","GEOID":"2501707350","STATE":"25","COUNTY":"017"}},{"type":"Feature","geometry":null,"properties":{"NAME":"Burlington town","BASENAME":"Burlington","GEOID":"2501709840","STATE":"25","COUNTY":"017"}},{"type":"Feature","geometry":null,"properties":{"NAME":"Hanover town","BASENAME":"Hanover","GEOID":"2502328285","STATE":"25","COUNTY":"023"}},{"type":"Feature","geometry":null,"properties":{"NAME":"Carlisle town","BASENAME":"Carlisle","GEOID":"2501711525","STATE":"25","COUNTY":"017"}},{"type":"Feature","geometry":null,"properties":{"NAME":"Concord town","BASENAME":"Concord","GEOID":"2501715060","STATE":"25","COUNTY":"017"}},{"type":"Feature","geometry":null,"properties":{"NAME":"Marshfield town","BASENAME":"Marshfield","GEOID":"2502338855","STATE":"25","COUNTY":"023"}},{"type":"Feature","geometry":null,"properties":{"NAME":"Norwell town","BASENAME":"Norwell","GEOID":"2502350145","STATE":"25","COUNTY":"023"}},{"type":"Feature","geometry":null,"properties":{"NAME":"Wareham town","BASENAME":"Wareham","GEOID":"2502372985","STATE":"25","COUNTY":"023"}},{"type":"Feature","geometry":null,"properties":{"NAME":"Bedford town","BASENAME":"Bedford","GEOID":"2501704615","STATE":"25","COUNTY":"017"}},{"type":"Feature","geometry":null,"properties":{"NAME":"Northfield town","BASENAME":"Northfield","GEOID":"2501147835","STATE":"25","COUNTY":"011"}},{"type":"Feature","geometry":null,"properties":{"NAME":"Hawley town","BASENAME":"Hawley","GEOID":"2501129475","STATE":"25","COUNTY":"011"}},{"type":"Feature","geometry":null,"properties":{"NAME":"Aquinnah town","BASENAME":"Aquinnah","GEOID":"2500701585","STATE":"25","COUNTY":"007"}},{"type":"Feature","geometry":null,"properties":{"NAME":"Southampton town","BASENAME":"Southampton","GEOID":"2501562745","STATE":"25","COUNTY":"015"}},{"type":"Feature","geometry":null,"properties":{"NAME":"Westhampton town","BASENAME":"Westhampton","GEOID":"2501576380","STATE":"25","COUNTY":"015"}},{"type":"Feature","geometry":null,"properties":{"NAME":"Northborough town","BASENAME":"Northborough","GEOID":"2502746820","STATE":"25","COUNTY":"027"}},{"type":"Feature","geometry":null,"properties":{"NAME":"Ashburnham town","BASENAME":"Ashburnham","GEOID":"2502701885","STATE":"25","COUNTY":"027"}},{"type":"Feature","geometry":null,"properties":{"NAME":"Randolph Town city","BASENAME":"Randolph Town","GEOID":"2502156000","STATE":"25","COUNTY":"021"}},{"type":"Feature","geometry":null,"properties":{"NAME":"Webster town","BASENAME":"Webster","GEOID":"2502773895","STATE":"25","COUNTY":"027"}},{"type":"Feature","geometry":null,"properties":{"NAME":"West Boylston town","BASENAME":"West Boylston","GEOID":"2502775155","STATE":"25","COUNTY":"027"}},{"type":"Feature","geometry":null,"properties":{"NAME":"Millville town","BASENAME":"Millville","GEOID":"2502741585","STATE":"25","COUNTY":"027"}},{"type":"Feature","geometry":null,"properties":{"NAME":"Barre town","BASENAME":"Barre","GEOID":"2502703740","STATE":"25","COUNTY":"027"}},{"type":"Feature","geometry":null,"properties":{"NAME":"Hopedale town","BASENAME":"Hopedale","GEOID":"2502730945","STATE":"25","COUNTY":"027"}},{"type":"Feature","geometry":null,"properties":{"NAME":"Lancaster town","BASENAME":"Lancaster","GEOID":"2502734165","STATE":"25","COUNTY":"027"}},{"type":"Feature","geometry":null,"properties":{"NAME":"Harvard town","BASENAME":"Harvard","GEOID":"2502728950","STATE":"25","COUNTY":"027"}},{"type":"Feature","geometry":null,"properties":{"NAME":"Gardner city","BASENAME":"Gardner","GEOID":"2502725485","STATE":"25","COUNTY":"027"}},{"type":"Feature","geometry":null,"properties":{"NAME":"Phillipston town","BASENAME":"Phillipston","GEOID":"2502753225","STATE":"25","COUNTY":"027"}},{"type":"Feature","geometry":null,"properties":{"NAME":"Petersham town","BASENAME":"Petersham","GEOID":"2502753120","STATE":"25","COUNTY":"027"}},{"type":"Feature","geometry":null,"properties":{"NAME":"Holland town","BASENAME":"Holland","GEOID":"2501330665","STATE":"25","COUNTY":"013"}},{"type":"Feature","geometry":null,"properties":{"NAME":"Avon town","BASENAME":"Avon","GEOID":"2502102935","STATE":"25","COUNTY":"021"}},{"type":"Feature","geometry":null,"properties":{"NAME":"Dover town","BASENAME":"Dover","GEOID":"2502117405","STATE":"25","COUNTY":"021"}},{"type":"Feature","geometry":null,"properties":{"NAME":"Holbrook town","BASENAME":"Holbrook","GEOID":"2502130455","STATE":"25","COUNTY":"021"}},{"type":"Feature","geometry":null,"properties":{"NAME":"Medway town","BASENAME":"Medway","GEOID":"2502139975","STATE":"25","COUNTY":"021"}},{"type":"Feature","geometry":null,"properties":{"NAME":"Plainville town","BASENAME":"Plainville","GEOID":"2502154100","STATE":"25","COUNTY":"021"}},{"type":"Feature","geometry":null,"properties":{"NAME":"Westwood town","BASENAME":"Westwood","GEOID":"2502178690","STATE":"25","COUNTY":"021"}},{"type":"Feature","geometry":null,"properties":{"NAME":"Agawam Town city","BASENAME":"Agawam Town","GEOID":"2501300840","STATE":"25","COUNTY":"013"}},{"type":"Feature","geometry":null,"properties":{"NAME":"Brimfield town","BASENAME":"Brimfield","GEOID":"2501308470","STATE":"25","COUNTY":"013"}},{"type":"Feature","geometry":null,"properties":{"NAME":"Westfield city","BASENAME":"Westfield","GEOID":"2501376030","STATE":"25","COUNTY":"013"}},{"type":"Feature","geometry":null,"properties":{"NAME":"Dracut town","BASENAME":"Dracut","GEOID":"2501717475","STATE":"25","COUNTY":"017"}},{"type":"Feature","geometry":null,"properties":{"NAME":"New Bedford city","BASENAME":"New Bedford","GEOID":"2500545000","STATE":"25","COUNTY":"005"}},{"type":"Feature","geometry":null,"properties":{"NAME":"Norton town","BASENAME":"Norton","GEOID":"2500549970","STATE":"25","COUNTY":"005"}},{"type":"Feature","geometry":null,"properties":{"NAME":"Duxbury town","BASENAME":"Duxbury","GEOID":"2502317895","STATE":"25","COUNTY":"023"}},{"type":"Feature","geometry":null,"properties":{"NAME":"East Bridgewater town","BASENAME":"East Bridgewater","GEOID":"2502318455","STATE":"25","COUNTY":"023"}},{"type":"Feature","geometry":null,"properties":{"NAME":"Northampton city","BASENAME":"Northampton","GEOID":"2501546330","STATE":"25","COUNTY":"015"}},{"type":"Feature","geometry":null,"properties":{"NAME":"Buckland town","BASENAME":"Buckland","GEOID":"2501109595","STATE":"25","COUNTY":"011"}},{"type":"Feature","geometry":null,"properties":{"NAME":"Conway town","BASENAME":"Conway","GEOID":"2501115200","STATE":"25","COUNTY":"011"}},{"type":"Feature","geometry":null,"properties":{"NAME":"Heath town","BASENAME":"Heath","GEOID":"2501129650","STATE":"25","COUNTY":"011"}},{"type":"Feature","geometry":null,"properties":{"NAME":"Rowe town","BASENAME":"Rowe","GEOID":"2501158335","STATE":"25","COUNTY":"011"}},{"type":"Feature","geometry":null,"properties":{"NAME":"Bellingham town","BASENAME":"Bellingham","GEOID":"2502104930","STATE":"25","COUNTY":"021"}},{"type":"Feature","geometry":null,"properties":{"NAME":"Bolton town","BASENAME":"Bolton","GEOID":"2502706365","STATE":"25","COUNTY":"027"}},{"type":"Feature","geometry":null,"properties":{"NAME":"Brookline town","BASENAME":"Brookline","GEOID":"2502109175","STATE":"25","COUNTY":"021"}},{"type":"Feature","geometry":null,"properties":{"NAME":"Canton town","BASENAME":"Canton","GEOID":"2502111315","STATE":"25","COUNTY":"021"}},{"type":"Feature","geometry":null,"properties":{"NAME":"Cohasset town","BASENAME":"Cohasset","GEOID":"2502114640","STATE":"25","COUNTY":"021"}},{"type":"Feature","geometry":null,"properties":{"NAME":"Millis town","BASENAME":"Millis","GEOID":"2502141515","STATE":"25","COUNTY":"021"}},{"type":"Feature","geometry":null,"properties":{"NAME":"Milton town","BASENAME":"Milton","GEOID":"2502141690","STATE":"25","COUNTY":"021"}},{"type":"Feature","geometry":null,"properties":{"NAME":"Needham town","BASENAME":"Needham","GEOID":"2502144105","STATE":"25","COUNTY":"021"}},{"type":"Feature","geometry":null,"properties":{"NAME":"Plainfield town","BASENAME":"Plainfield","GEOID":"2501554030","STATE":"25","COUNTY":"015"}},{"type":"Feature","geometry":null,"properties":{"NAME":"Acton town","BASENAME":"Acton","GEOID":"2501700380","STATE":"25","COUNTY":"017"}},{"type":"Feature","geometry":null,"properties":{"NAME":"Boylston town","BASENAME":"Boylston","GEOID":"2502707525","STATE":"25","COUNTY":"027"}},{"type":"Feature","geometry":null,"properties":{"NAME":"Clinton town","BASENAME":"Clinton","GEOID":"2502714395","STATE":"25","COUNTY":"027"}},{"type":"Feature","geometry":null,"properties":{"NAME":"Douglas town","BASENAME":"Douglas","GEOID":"2502717300","STATE":"25","COUNTY":"027"}}]}