{"type":"FeatureCollection","features":[{"type":"Feature","geometry":null,"properties":{"NAME":"Kirby town","BASENAME":"Kirby","GEOID":"5000537900","STATE":"50","COUNTY":"005","COUSUB":"37900"}},{"type":"Feature","geometry":null,"properties":{"NAME":"Lyndon town","BASENAME":"Lyndon","GEOID":"5000541725","STATE":"50","COUNTY":"005","COUSUB":"41725"}},{"type":"Feature","geometry":null,"properties":{"NAME":"Newark town","BASENAME":"Newark","GEOID":"5000547725","STATE":"50","COUNTY":"005","COUSUB":"47725"}},{"type":"Feature","geometry":null,"properties":{"NAME":"Peacham town","BASENAME":"Peacham","GEOID":"5000554400","STATE":"50","COUNTY":"005","COUSUB":"54400"}},{"type":"Feature","geometry":null,"properties":{"NAME":"St. Johnsbury town","BASENAME":"St. Johnsbury","GEOID":"5000562200","STATE":"50","COUNTY":"005","COUSUB":"62200"}},{"type":"Feature","geometry":null,"properties":{"NAME":"Sheffield town","BASENAME":"Sheffield","GEOID":"5000564075","STATE":"50","COUNTY":"005","COUSUB":"64075"}},{"type":"Feature","geometry":null,"properties":{"NAME":"Thetford town","BASENAME":"Thetford","GEOID":"5001772400","STATE":"50","COUNTY":"017","COUSUB":"72400"}},{"type":"Feature","geometry":null,"properties":{"NAME":"Newfane town","BASENAME":"Newfane","GEOID":"5002548400","STATE":"50","COUNTY":"025","COUSUB":"48400"}},{"type":"Feature","geometry":null,"properties":{"NAME":"Rockingham town","BASENAME":"Rockingham","GEOID":"5002560250","STATE":"50","COUNTY":"025","COUSUB":"60250"}},{"type":"Feature","geometry":null,"properties":{"NAME":"Westminster town","BASENAME":"Westminster","GEOID":"5002581400","STATE":"50","COUNTY":"025","COUSUB":"81400"}},{"type":"Feature","geometry":null,"properties":{"NAME":"Windham town","BASENAME":"Windham","GEOID":"5002584850","STATE":"50","COUNTY":"025","COUSUB":"84850"}},{"type":"Feature","geometry":null,"properties":{"NAME":"Topsham town","BASENAME":"Topsham","GEOID":"5001773075","STATE":"50","COUNTY":"017","COUSUB":"73075"}},{"type":"Feature","geometry":null,"properties":{"NAME":"Tunbridge town","BASENAME":"Tunbridge","GEOID":"5001773675","STATE":"50","COUNTY":"017","COUSUB":"73675"}},{"type":"Feature","geometry":null,"properties":{"NAME":"Vershire town","BASENAME":"Vershire","GEOID":"5001774950","STATE":"50","COUNTY":"017","COUSUB":"74950"}},{"type":"Feature","geometry":null,"properties":{"NAME":"West Fairlee town","BASENAME":"West Fairlee","GEOID":"5001779975","STATE":"50","COUNTY":"017","COUSUB":"79975"}},{"type":"Feature","geometry":null,"properties":{"NAME":"Eden town","BASENAME":"Eden","GEOID":"5001523500","STATE":"50","COUNTY":"015","COUSUB":"23500"}},{"type":"Feature","geometry":null,"properties":{"NAME":"Bradford town","BASENAME":"Bradford","GEOID":"5001707375","STATE":"50","COUNTY":"017","COUSUB":"07375"}},{"type":"Feature","geometry":null,"properties":{"NAME":"Brookline town","BASENAME":"Brookline","GEOID":"5002509475","STATE":"50","COUNTY":"025","COUSUB":"09475"}},{"type":"Feature","geometry":null,"properties":{"NAME":"Dover town","BASENAME":"Dover","GEOID":"5002517875","STATE":"50","COUNTY":"025","COUSUB":"17875"}},{"type":"Feature","geometry":null,"properties":{"NAME":"Grafton town","BASENAME":"Grafton","GEOID":"5002528900","STATE":"50","COUNTY":"025","COUSUB":"28900"}},{"type":"Feature","geometry":null,"properties":{"NAME":"Guilford town","BASENAME":"Guilford","GEOID":"5002530925","STATE":"50","COUNTY":"025","COUSUB":"30925"}},{"type":"Feature","geometry":null,"properties":{"NAME":"Strafford town","BASENAME":"Strafford","GEOID":"5001770675","STATE":"50","COUNTY":"017","COUSUB":"70675"}},{"type":"Feature","geometry":null,"properties":{"NAME":"Corinth town","BASENAME":"Corinth","GEOID":"5001715700","STATE":"50","COUNTY":"017","COUSUB":"15700"}},{"type":"Feature","geometry":null,"properties":{"NAME":"Fairlee town","BASENAME":"Fairlee","GEOID":"5001725675","STATE":"50","COUNTY":"017","COUSUB":"25675"}},{"type":"Feature","geometry":null,"properties":{"NAME":"Orange town","BASENAME":"Orange","GEOID":"5001753425","STATE":"50","COUNTY":"017","COUSUB":"53425"}},{"type":"Feature","geometry":null,"properties":{"NAME":"Randolph town","BASENAME":"Randolph","GEOID":"5001758075","STATE":"50","COUNTY":"017","COUSUB":"58075"}},{"type":"Feature","geometry":null,"properties":{"NAME":"Putney town","BASENAME":"Putney","GEOID":"5002557700","STATE":"50","COUNTY":"025","COUSUB":"57700"}},{"type":"Feature","geometry":null,"properties":{"NAME":"Vernon town","BASENAME":"Vernon","GEOID":"5002574800","STATE":"50","COUNTY":"025","COUSUB":"74800"}},{"type":"Feature","geometry":null,"properties":{"NAME":"Berkshire town","BASENAME":"Berkshire","GEOID":"5001105425","STATE":"50","COUNTY":"011","COUSUB":"05425"}},{"type":"Feature","geometry":null,"properties":{"NAME":"Enosburgh town","BASENAME":"Enosburgh","GEOID":"5001124050","STATE":"50","COUNTY":"011","COUSUB":"24050"}},{"type":"Feature","geometry":null,"properties":{"NAME":"Fairfield town","BASENAME":"Fairfield","GEOID":"5001125225","STATE":"50","COUNTY":"011","COUSUB":"25225"}},{"type":"Feature","geometry":null,"properties":{"NAME":"Fletcher town","BASENAME":"Fletcher","GEOID":"5001126500","STATE":"50","COUNTY":"011","COUSUB":"26500"}},{"type":"Feature","geometry":null,"properties":{"NAME":"Panton town","BASENAME":"Panton","GEOID":"5000153950","STATE":"50","COUNTY":"001","COUSUB":"53950"}},{"type":"Feature","geometry":null,"properties":{"NAME":"Ripton town","BASENAME":"Ripton","GEOID":"5000159650","STATE":"50","COUNTY":"001","COUSUB":"59650"}},{"type":"Feature","geometry":null,"properties":{"NAME":"Shoreham town","BASENAME":"Shoreham","GEOID":"5000165050","STATE":"50","COUNTY":"001","COUSUB":"65050"}},{"type":"Feature","geometry":null,"properties":{"NAME":"Starksboro town","BASENAME":"Starksboro","GEOID":"5000170075","STATE":"50","COUNTY":"001","COUSUB":"70075"}},{"type":"Feature","geometry":null,"properties":{"NAME":"Vergennes city","BASENAME":"Vergennes","GEOID":"5000174650","STATE":"50","COUNTY":"001","COUSUB":"74650"}},{"type":"Feature","geometry":null,"properties":{"NAME":"Chittenden town","BASENAME":"Chittenden","GEOID":"5002114350","STATE":"50","COUNTY":"021","COUSUB":"14350"}},{"type":"Feature","geometry":null,"properties":{"NAME":"Montpelier city","BASENAME":"Montpelier","GEOID":"5002346000","STATE":"50","COUNTY":"023","COUSUB":"46000"}},{"type":"Feature","geometry":null,"properties":{"NAME":"Northfield town","BASENAME":"Northfield","GEOID":"5002350275","STATE":"50","COUNTY":"023","COUSUB":"50275"}},{"type":"Feature","geometry":null,"properties":{"NAME":"Roxbury town","BASENAME":"Roxbury","GEOID":"5002360625","STATE":"50","COUNTY":"023","COUSUB":"60625"}},{"type":"Feature","geometry":null,"properties":{"NAME":"Waitsfield town","BASENAME":"Waitsfield","GEOID":"5002375325","STATE":"50","COUNTY":"023","COUSUB":"75325"}},{"type":"Feature","geometry":null,"properties":{"NAME":"Groton town","BASENAME":"Groton","GEOID":"5000530550","STATE":"50","COUNTY":"005","COUSUB":"30550"}},{"type":"Feature","geometry":null,"properties":{"NAME":"Hardwick town","BASENAME":"Hardwick","GEOID":"5000531825","STATE":"50","COUNTY":"005","COUSUB":"31825"}},{"type":"Feature","geometry":null,"properties":{"NAME":"Williamstown town","BASENAME":"Williamstown","GEOID":"5001784175","STATE":"50","COUNTY":"017","COUSUB":"84175"}},{"type":"Feature","geometry":null,"properties":{"NAME":"Sandgate town","BASENAME":"Sandgate","GEOID":"5000362875","STATE":"50","COUNTY":"003","COUSUB":"62875"}},{"type":"Feature","geometry":null,"properties":{"NAME":"Ira town","BASENAME":"Ira","GEOID":"5002135425","STATE":"50","COUNTY":"021","COUSUB":"35425"}},{"type":"Feature","geometry":null,"properties":{"NAME":"Killington town","BASENAME":"Killington","GEOID":"5002137685","STATE":"50","COUNTY":"021","COUSUB":"37685"}},{"type":"Feature","geometry":null,"properties":{"NAME":"Mendon town","BASENAME":"Mendon","GEOID":"5002144125","STATE":"50","COUNTY":"021","COUSUB":"44125"}},{"type":"Feature","geometry":null,"properties":{"NAME":"Mount Holly town","BASENAME":"Mount Holly","GEOID":"5002147200","STATE":"50","COUNTY":"021","COUSUB":"47200"}},{"type":"Feature","geometry":null,"properties":{"NAME":"Warner's grant","BASENAME":"Warner's","GEOID":"5000976337","STATE":"50","COUNTY":"009","COUSUB":"76337"}},{"type":"Feature","geometry":null,"properties":{"NAME":"Wolcott town","BASENAME":"Wolcott","GEOID":"5001585375","STATE":"50","COUNTY":"015","COUSUB":"85375"}},{"type":"Feature","geometry":null,"properties":{"NAME":"Belvidere town","BASENAME":"Belvidere","GEOID":"5001504375","STATE":"50","COUNTY":"015","COUSUB":"04375"}},{"type":"Feature","geometry":null,"properties":{"NAME":"Cambridge town","BASENAME":"Cambridge","GEOID":"5001511500","STATE":"50","COUNTY":"015","COUSUB":"11500"}},{"type":"Feature","geometry":null,"properties":{"NAME":"Guildhall town","BASENAME":"Guildhall","GEOID":"5000930775","STATE":"50","COUNTY":"009","COUSUB":"30775"}},{"type":"Feature","geometry":null,"properties":{"NAME":"Lewis town","BASENAME":"Lewis","GEOID":"5000939775","STATE":"50","COUNTY":"009","COUSUB":"39775"}},{"type":"Feature","geometry":null,"properties":{"NAME":"Norton town","BASENAME":"Norton","GEOID":"5000952750","STATE":"50","COUNTY":"009","COUSUB":"52750"}},{"type":"Feature","geometry":null,"properties":{"NAME":"Victory town","BASENAME":"Victory","GEOID":"5000975175","STATE":"50","COUNTY":"009","COUSUB":"75175"}},{"type":"Feature","geometry":null,"properties":{"NAME":"Warren's gore","BASENAME":"Warren's","GEOID":"5000976562","STATE":"50","COUNTY":"009","COUSUB":"76562"}},{"type":"Feature","geometry":null,"properties":{"NAME":"Warren town","BASENAME":"Warren","GEOID":"5002376525","STATE":"50","COUNTY":"023","COUSUB":"76525"}},{"type":"Feature","geometry":null,"properties":{"NAME":"Woodbury town","BASENAME":"Woodbury","GEOID":"5002385525","STATE":"50","COUNTY":"023","COUSUB":"85525"}},{"type":"Feature","geometry":null,"properties":{"NAME":"Worcester town","BASENAME":"Worcester","GEOID":"5002386125","STATE":"50","COUNTY":"023","COUSUB":"86125"}},{"type":"Feature","geometry":null,"properties":{"NAME":"Derby town","BASENAME":"Derby","GEOID":"5001917350","STATE":"50","COUNTY":"019","COUSUB":"17350"}},{"type":"Feature","geometry":null,"properties":{"NAME":"Avery's gore","BASENAME":"Avery's","GEOID":"5000902162","STATE":"50","COUNTY":"009","COUSUB":"02162"}},{"type":"Feature","geometry":null,"properties":{"NAME":"Morristown town","BASENAME":"Morristown","GEOID":"5001546675","STATE":"50","COUNTY":"015","COUSUB":"46675"}},{"type":"Feature","geometry":null,"properties":{"NAME":"Averill town","BASENAME":"Averill","GEOID":"5000902125","STATE":"50","COUNTY":"009","COUSUB":"02125"}},{"type":"Feature","geometry":null,"properties":{"NAME":"Jay town","BASENAME":"Jay","GEOID":"5001936325","STATE":"50","COUNTY":"019","COUSUB":"36325"}},{"type":"Feature","geometry":null,"properties":{"NAME":"Benson town","BASENAME":"Benson","GEOID":"5002105200","STATE":"50","COUNTY":"021","COUSUB":"05200"}},{"type":"Feature","geometry":null,"properties":{"NAME":"Middletown Springs town","BASENAME":"Middletown Springs","GEOID":"5002144800","STATE":"50","COUNTY":"021","COUSUB":"44800"}},{"type":"Feature","geometry":null,"properties":{"NAME":"Wallingford town","BASENAME":"Wallingford","GEOID":"5002175925","STATE":"50","COUNTY":"021","COUSUB":"75925"}},{"type":"Feature","geometry":null,"properties":{"NAME":"Clarendon town","BASENAME":"Clarendon","GEOID":"5002114500","STATE":"50","COUNTY":"021","COUSUB":"14500"}},{"type":"Feature","geometry":null,"properties":{"NAME":"Danby town","BASENAME":"Danby","GEOID":"5002116825","STATE":"50","COUNTY":"021","COUSUB":"16825"}},{"type":"Feature","geometry":null,"properties":{"NAME":"Hubbardton town","BASENAME":"Hubbardton","GEOID":"5002134450","STATE":"50","COUNTY":"021","COUSUB":"34450"}},{"type":"Feature","geometry":null,"properties":{"NAME":"Craftsbury town","BASENAME":"Craftsbury","GEOID":"5001916300","STATE":"50","COUNTY":"019","COUSUB":"16300"}},{"type":"Feature","geometry":null,"properties":{"NAME":"Greensboro town","BASENAME":"Greensboro","GEOID":"5001930175","STATE":"50","COUNTY":"019","COUSUB":"30175"}},{"type":"Feature","geometry":null,"properties":{"NAME":"Holland town","BASENAME":"Holland","GEOID":"5001933775","STATE":"50","COUNTY":"019","COUSUB":"33775"}},{"type":"Feature","geometry":null,"properties":{"NAME":"Moretown town","BASENAME":"Moretown","GEOID":"5002346225","STATE":"50","COUNTY":"023","COUSUB":"46225"}},{"type":"Feature","geometry":null,"properties":{"NAME":"Barre town","BASENAME":"Barre","GEOID":"5002303250","STATE":"50","COUNTY":"023","COUSUB":"03250"}},{"type":"Feature","geometry":null,"properties":{"NAME":"Plainfield town","BASENAME":"Plainfield","GEOID":"5002355825","STATE":"50","COUNTY":"023","COUSUB":"55825"}},{"type":"Feature","geometry":null,"properties":{"NAME":"Calais town","BASENAME":"Calais","GEOID":"5002311350","STATE":"50","COUNTY":"023","COUSUB":"11350"}},{"type":"Feature","geometry":null,"properties":{"NAME":"Goshen town","BASENAME":"Goshen","GEOID":"5000128600","STATE":"50","COUNTY":"001","COUSUB":"28600"}},{"type":"Feature","geometry":null,"properties":{"NAME":"Bristol town","BASENAME":"Bristol","GEOID":"5000109025","STATE":"50","COUNTY":"001","COUSUB":"09025"}},{"type":"Feature","geometry":null,"properties":{"NAME":"Stannard town","BASENAME":"Stannard","GEOID":"5000569925","STATE":"50","COUNTY":"005","COUSUB":"69925"}},{"type":"Feature","geometry":null,"properties":{"NAME":"Washington town","BASENAME":"Washington","GEOID":"5001776750","STATE":"50","COUNTY":"017","COUSUB":"76750"}},{"type":"Feature","geometry":null,"properties":{"NAME":"Andover town","BASENAME":"Andover","GEOID":"5002701300","STATE":"50","COUNTY":"027","COUSUB":"01300"}},{"type":"Feature","geometry":null,"properties":{"NAME":"Baltimore town","BASENAME":"Baltimore","GEOID":"5002702575","STATE":"50","COUNTY":"027","COUSUB":"02575"}},{"type":"Feature","geometry":null,"properties":{"NAME":"Hartford town","BASENAME":"Hartford","GEOID":"5002732275","STATE":"50","COUNTY":"027","COUSUB":"32275"}},{"type":"Feature","geometry":null,"properties":{"NAME":"Montgomery town","BASENAME":"Montgomery","GEOID":"5001145850","STATE":"50","COUNTY":"011","COUSUB":"45850"}},{"type":"Feature","geometry":null,"properties":{"NAME":"St. Albans city","BASENAME":"St. Albans","GEOID":"5001161675","STATE":"50","COUNTY":"011","COUSUB":"61675"}},{"type":"Feature","geometry":null,"properties":{"NAME":"Sheldon town","BASENAME":"Sheldon","GEOID":"5001164600","STATE":"50","COUNTY":"011","COUSUB":"64600"}},{"type":"Feature","geometry":null,"properties":{"NAME":"Fairfax town","BASENAME":"Fairfax","GEOID":"5001124925","STATE":"50","COUNTY":"011","COUSUB":"24925"}},{"type":"Feature","geometry":null,"properties":{"NAME":"St. Albans town","BASENAME":"St. Albans","GEOID":"5001161750","STATE":"50","COUNTY":"011","COUSUB":"61750"}},{"type":"Feature","geometry":null,"properties":{"NAME":"Stamford town","BASENAME":"Stamford","GEOID":"5000369775","STATE":"50","COUNTY":"003","COUSUB":"69775"}},{"type":"Feature","geometry":null,"properties":{"NAME":"Sunderland town","BASENAME":"Sunderland","GEOID":"5000371425","STATE":"50","COUNTY":"003","COUSUB":"71425"}},{"type":"Feature","geometry":null,"properties":{"NAME":"Winhall town","BASENAME":"Winhall","GEOID":"5000385075","STATE":"50","COUNTY":"003","COUSUB":"85075"}},{"type":"Feature","geometry":null,"properties":{"NAME":"Woodford town","BASENAME":"Woodford","GEOID":"5000385675","STATE":"50","COUNTY":"003","COUSUB":"85675"}},{"type":"Feature","geometry":null,"properties":{"NAME":"Braintree town","BASENAME":"Braintree","GEOID":"5001707600","STATE":"50","COUNTY":"017","COUSUB":"07600"}},{"type":"Feature","geometry":null,"properties":{"NAME":"Brookfield town","BASENAME":"Brookfield","GEOID":"5001709325","STATE":"50","COUNTY":"017","COUSUB":"09325"}},{"type":"Feature","geometry":null,"properties":{"NAME":"Salisbury town","BASENAME":"Salisbury","GEOID":"5000162575","STATE":"50","COUNTY":"001","COUSUB":"62575"}},{"type":"Feature","geometry":null,"properties":{"NAME":"Ferdinand town","BASENAME":"Ferdinand","GEOID":"5000925975","STATE":"50","COUNTY":"009","COUSUB":"25975"}},{"type":"Feature","geometry":null,"properties":{"NAME":"Georgia town","BASENAME":"Georgia","GEOID":"5001127700","STATE":"50","COUNTY":"011","COUSUB":"27700"}},{"type":"Feature","geometry":null,"properties":{"NAME":"Cabot town","BASENAME":"Cabot","GEOID":"5002311125","STATE":"50","COUNTY":"023","COUSUB":"11125"}},{"type":"Feature","geometry":null,"properties":{"NAME":"Barnard town","BASENAME":"Barnard","GEOID":"5002702725","STATE":"50","COUNTY":"027","COUSUB":"02725"}},{"type":"Feature","geometry":null,"properties":{"NAME":"Richmond town","BASENAME":"Richmond","GEOID":"5000759275","STATE":"50","COUNTY":"007","COUSUB":"59275"}},{"type":"Feature","geometry":null,"properties":{"NAME":"Underhill town","BASENAME":"Underhill","GEOID":"5000773975","STATE":"50","COUNTY":"007","COUSUB":"73975"}},{"type":"Feature","geometry":null,"properties":{"NAME":"Westford town","BASENAME":"Westford","GEOID":"5000780350","STATE":"50","COUNTY":"007","COUSUB":"80350"}},{"type":"Feature","geometry":null,"properties":{"NAME":"Winooski city","BASENAME":"Winooski","GEOID":"5000785150","STATE":"50","COUNTY":"007","COUSUB":"85150"}},{"type":"Feature","geometry":null,"properties":{"NAME":"Buels gore","BASENAME":"Buels","GEOID":"5000710300","STATE":"50","COUNTY":"007","COUSUB":"10300"}},{"type":"Feature","geometry":null,"properties":{"NAME":"Essex town","BASENAME":"Essex","GEOID":"5000724175","STATE":"50","COUNTY":"007","COUSUB":"24175"}},{"type":"Feature","geometry":null,"properties":{"NAME":"Chelsea town","BASENAME":"Chelsea","GEOID":"5001713525","STATE":"50","COUNTY":"017","COUSUB":"13525"}},{"type":"Feature","geometry":null,"properties":{"NAME":"Newbury town","BASENAME":"Newbury","GEOID":"5001748175","STATE":"50","COUNTY":"017","COUSUB":"48175"}},{"type":"Feature","geometry":null,"properties":{"NAME":"Colchester town","BASENAME":"Colchester","GEOID":"5000714875","STATE":"50","COUNTY":"007","COUSUB":"14875"}},{"type":"Feature","geometry":null,"properties":{"NAME":"St. George town","BASENAME":"St. George","GEOID":"5000762050","STATE":"50","COUNTY":"007","COUSUB":"62050"}},{"type":"Feature","geometry":null,"properties":{"NAME":"Wardsboro town","BASENAME":"Wardsboro","GEOID":"5002576225","STATE":"50","COUNTY":"025","COUSUB":"76225"}},{"type":"Feature","geometry":null,"properties":{"NAME":"Waterbury town","BASENAME":"Waterbury","GEOID":"5002376975","STATE":"50","COUNTY":"023","COUSUB":"76975"}},{"type":"Feature","geometry":null,"properties":{"NAME":"Bakersfield town","BASENAME":"Bakersfield","GEOID":"5001102500","STATE":"50","COUNTY":"011","COUSUB":"02500"}},{"type":"Feature","geometry":null,"properties":{"NAME":"Bethel town","BASENAME":"Bethel","GEOID":"5002705800","STATE":"50","COUNTY":"027","COUSUB":"05800"}},{"type":"Feature","geometry":null,"properties":{"NAME":"Bridgewater town","BASENAME":"Bridgewater","GEOID":"5002708275","STATE":"50","COUNTY":"027","COUSUB":"08275"}},{"type":"Feature","geometry":null,"properties":{"NAME":"Cavendish town","BASENAME":"Cavendish","GEOID":"5002712250","STATE":"50","COUNTY":"027","COUSUB":"12250"}},{"type":"Feature","geometry":null,"properties":{"NAME":"Chester town","BASENAME":"Chester","GEOID":"5002713675","STATE":"50","COUNTY":"027","COUSUB":"13675"}},{"type":"Feature","geometry":null,"properties":{"NAME":"Highgate town","BASENAME":"Highgate","GEOID":"5001133025","STATE":"50","COUNTY":"011","COUSUB":"33025"}},{"type":"Feature","geometry":null,"properties":{"NAME":"Hinesburg town","BASENAME":"Hinesburg","GEOID":"5000733475","STATE":"50","COUNTY":"007","COUSUB":"33475"}},{"type":"Feature","geometry":null,"properties":{"NAME":"Huntington town","BASENAME":"Huntington","GEOID":"5000734600","STATE":"50","COUNTY":"007","COUSUB":"34600"}},{"type":"Feature","geometry":null,"properties":{"NAME":"Jericho town","BASENAME":"Jericho","GEOID":"5000736700","STATE":"50","COUNTY":"007","COUSUB":"36700"}},{"type":"Feature","geometry":null,"properties":{"NAME":"Westmore town","BASENAME":"Westmore","GEOID":"5001981700","STATE":"50","COUNTY":"019","COUSUB":"81700"}},{"type":"Feature","geometry":null,"properties":{"NAME":"Westfield town","BASENAME":"Westfield","GEOID":"5001980200","STATE":"50","COUNTY":"019","COUSUB":"80200"}},{"type":"Feature","geometry":null,"properties":{"NAME":"Brattleboro town","BASENAME":"Brattleboro","GEOID":"5002507900","STATE":"50","COUNTY":"025","COUSUB":"07900"}},{"type":"Feature","geometry":null,"properties":{"NAME":"Dummerston town","BASENAME":"Dummerston","GEOID":"5002518325","STATE":"50","COUNTY":"025","COUSUB":"18325"}},{"type":"Feature","geometry":null,"properties":{"NAME":"Londonderry town","BASENAME":"Londonderry","GEOID":"5002540225","STATE":"50","COUNTY":"025","COUSUB":"40225"}},{"type":"Feature","geometry":null,"properties":{"NAME":"Hartland town","BASENAME":"Hartland","GEOID":"5002732425","STATE":"50","COUNTY":"027","COUSUB":"32425"}},{"type":"Feature","geometry":null,"properties":{"NAME":"Ludlow town","BASENAME":"Ludlow","GEOID":"5002741275","STATE":"50","COUNTY":"027","COUSUB":"41275"}},{"type":"Feature","geometry":null,"properties":{"NAME":"Plymouth town","BASENAME":"Plymouth","GEOID":"5002756050","STATE":"50","COUNTY":"027","COUSUB":"56050"}},{"type":"Feature","geometry":null,"properties":{"NAME":"Barton town","BASENAME":"Barton","GEOID":"5001903550","STATE":"50","COUNTY":"019","COUSUB":"03550"}},{"type":"Feature","geometry":null,"properties":{"NAME":"Glover town","BASENAME":"Glover","GEOID":"5001928075","STATE":"50","COUNTY":"019","COUSUB":"28075"}},{"type":"Feature","geometry":null,"properties":{"NAME":"Hyde Park town","BASENAME":"Hyde Park","GEOID":"5001535050","STATE":"50","COUNTY":"015","COUSUB":"35050"}},{"type":"Feature","geometry":null,"properties":{"NAME":"Pomfret town","BASENAME":"Pomfret","GEOID":"5002756350","STATE":"50","COUNTY":"027","COUSUB":"56350"}},{"type":"Feature","geometry":null,"properties":{"NAME":"Reading town","BASENAME":"Reading","GEOID":"5002758375","STATE":"50","COUNTY":"027","COUSUB":"58375"}},{"type":"Feature","geometry":null,"properties":{"NAME":"Royalton town","BASENAME":"Royalton","GEOID":"5002760850","STATE":"50","COUNTY":"027","COUSUB":"60850"}},{"type":"Feature","geometry":null,"properties":{"NAME":"Sharon town","BASENAME":"Sharon","GEOID":"5002763775","STATE":"50","COUNTY":"027","COUSUB":"63775"}},{"type":"Feature","geometry":null,"properties":{"NAME":"Arlington town","BASENAME":"Arlington","GEOID":"5000301450","STATE":"50","COUNTY":"003","COUSUB":"01450"}},{"type":"Feature","geometry":null,"properties":{"NAME":"Brownington town","BASENAME":"Brownington","GEOID":"5001909850","STATE":"50","COUNTY":"019","COUSUB":"09850"}},{"type":"Feature","geometry":null,"properties":{"NAME":"Charleston town","BASENAME":"Charleston","GEOID":"5001913150","STATE":"50","COUNTY":"019","COUSUB":"13150"}},{"type":"Feature","geometry":null,"properties":{"NAME":"Coventry town","BASENAME":"Coventry","GEOID":"5001916150","STATE":"50","COUNTY":"019","COUSUB":"16150"}},{"type":"Feature","geometry":null,"properties":{"NAME":"Franklin town","BASENAME":"Franklin","GEOID":"5001127100","STATE":"50","COUNTY":"011","COUSUB":"27100"}},{"type":"Feature","geometry":null,"properties":{"NAME":"Bolton town","BASENAME":"Bolton","GEOID":"5000706550","STATE":"50","COUNTY":"007","COUSUB":"06550"}},{"type":"Feature","geometry":null,"properties":{"NAME":"Irasburg town","BASENAME":"Irasburg","GEOID":"5001935575","STATE":"50","COUNTY":"019","COUSUB":"35575"}},{"type":"Feature","geometry":null,"properties":{"NAME":"Albany town","BASENAME":"Albany","GEOID":"5001900475","STATE":"50","COUNTY":"019","COUSUB":"00475"}},{"type":"Feature","geometry":null,"properties":{"NAME":"Lowell town","BASENAME":"Lowell","GEOID":"5001940525","STATE":"50","COUNTY":"019","COUSUB":"40525"}},{"type":"Feature","geometry":null,"properties":{"NAME":"Morgan town","BASENAME":"Morgan","GEOID":"5001946450","STATE":"50","COUNTY":"019","COUSUB":"46450"}},{"type":"Feature","geometry":null,"properties":{"NAME":"Newport city","BASENAME":"Newport","GEOID":"5001948850","STATE":"50","COUNTY":"019","COUSUB":"48850"}},{"type":"Feature","geometry":null,"properties":{"NAME":"Newport town","BASENAME":"Newport","GEOID":"5001948925","STATE":"50","COUNTY":"019","COUSUB":"48925"}},{"type":"Feature","geometry":null,"properties":{"NAME":"Troy town","BASENAME":"Troy","GEOID":"5001973525","STATE":"50","COUNTY":"019","COUSUB":"73525"}},{"type":"Feature","geometry":null,"properties":{"NAME":"Charlotte town","BASENAME":"Charlotte","GEOID":"5000713300","STATE":"50","COUNTY":"007","COUSUB":"13300"}},{"type":"Feature","geometry":null,"properties":{"NAME":"Searsburg town","BASENAME":"Searsburg","GEOID":"5000363175","STATE":"50","COUNTY":"003","COUSUB":"63175"}},{"type":"Feature","geometry":null,"properties":{"NAME":"Stockbridge town","BASENAME":"Stockbridge","GEOID":"5002770375","STATE":"50","COUNTY":"027","COUSUB":"70375"}},{"type":"Feature","geometry":null,"properties":{"NAME":"Weathersfield town","BASENAME":"Weathersfield","GEOID":"5002777500","STATE":"50","COUNTY":"027","COUSUB":"77500"}},{"type":"Feature","geometry":null,"properties":{"NAME":"Essex Junction city","BASENAME":"Essex Junction","GEOID":"5000724400","STATE":"50","COUNTY":"007","COUSUB":"24400"}},{"type":"Feature","geometry":null,"properties":{"NAME":"Ryegate town","BASENAME":"Ryegate","GEOID":"5000561525","STATE":"50","COUNTY":"005","COUSUB":"61525"}},{"type":"Feature","geometry":null,"properties":{"NAME":"Waterford town","BASENAME":"Waterford","GEOID":"5000577125","STATE":"50","COUNTY":"005","COUSUB":"77125"}},{"type":"Feature","geometry":null,"properties":{"NAME":"Danville town","BASENAME":"Danville","GEOID":"5000517125","STATE":"50","COUNTY":"005","COUSUB":"17125"}},{"type":"Feature","geometry":null,"properties":{"NAME":"Barnet town","BASENAME":"Barnet","GEOID":"5000502875","STATE":"50","COUNTY":"005","COUSUB":"02875"}},{"type":"Feature","geometry":null,"properties":{"NAME":"Bridport town","BASENAME":"Bridport","GEOID":"5000108575","STATE":"50","COUNTY":"001","COUSUB":"08575"}},{"type":"Feature","geometry":null,"properties":{"NAME":"Ferrisburgh town","BASENAME":"Ferrisburgh","GEOID":"5000126300","STATE":"50","COUNTY":"001","COUSUB":"26300"}},{"type":"Feature","geometry":null,"properties":{"NAME":"Orwell town","BASENAME":"Orwell","GEOID":"5000153725","STATE":"50","COUNTY":"001","COUSUB":"53725"}},{"type":"Feature","geometry":null,"properties":{"NAME":"Leicester town","BASENAME":"Leicester","GEOID":"5000139325","STATE":"50","COUNTY":"001","COUSUB":"39325"}},{"type":"Feature","geometry":null,"properties":{"NAME":"New Haven town","BASENAME":"New Haven","GEOID":"5000148700","STATE":"50","COUNTY":"001","COUSUB":"48700"}},{"type":"Feature","geometry":null,"properties":{"NAME":"Pittsfield town","BASENAME":"Pittsfield","GEOID":"5002155450","STATE":"50","COUNTY":"021","COUSUB":"55450"}},{"type":"Feature","geometry":null,"properties":{"NAME":"Poultney town","BASENAME":"Poultney","GEOID":"5002156875","STATE":"50","COUNTY":"021","COUSUB":"56875"}},{"type":"Feature","geometry":null,"properties":{"NAME":"Rutland city","BASENAME":"Rutland","GEOID":"5002161225","STATE":"50","COUNTY":"021","COUSUB":"61225"}},{"type":"Feature","geometry":null,"properties":{"NAME":"Shrewsbury town","BASENAME":"Shrewsbury","GEOID":"5002165275","STATE":"50","COUNTY":"021","COUSUB":"65275"}},{"type":"Feature","geometry":null,"properties":{"NAME":"Brandon town","BASENAME":"Brandon","GEOID":"5002107750","STATE":"50","COUNTY":"021","COUSUB":"07750"}},{"type":"Feature","geometry":null,"properties":{"NAME":"Castleton town","BASENAME":"Castleton","GEOID":"5002111950","STATE":"50","COUNTY":"021","COUSUB":"11950"}},{"type":"Feature","geometry":null,"properties":{"NAME":"Pawlet town","BASENAME":"Pawlet","GEOID":"5002154250","STATE":"50","COUNTY":"021","COUSUB":"54250"}},{"type":"Feature","geometry":null,"properties":{"NAME":"West Windsor town","BASENAME":"West Windsor","GEOID":"5002783050","STATE":"50","COUNTY":"027","COUSUB":"83050"}},{"type":"Feature","geometry":null,"properties":{"NAME":"Windsor town","BASENAME":"Windsor","GEOID":"5002784925","STATE":"50","COUNTY":"027","COUSUB":"84925"}},{"type":"Feature","geometry":null,"properties":{"NAME":"Woodstock town","BASENAME":"Woodstock","GEOID":"5002785975","STATE":"50","COUNTY":"027","COUSUB":"85975"}},{"type":"Feature","geometry":null,"properties":{"NAME":"Springfield town","BASENAME":"Springfield","GEOID":"5002769550","STATE":"50","COUNTY":"027","COUSUB":"69550"}},{"type":"Feature","geometry":null,"properties":{"NAME":"Weston town","BASENAME":"Weston","GEOID":"5002782000","STATE":"50","COUNTY":"027","COUSUB":"82000"}},{"type":"Feature","geometry":null,"properties":{"NAME":"Bennington town","BASENAME":"Bennington","GEOID":"5000304825","STATE":"50","COUNTY":"003","COUSUB":"04825"}},{"type":"Feature","geometry":null,"properties":{"NAME":"Dorset town","BASENAME":"Dorset","GEOID":"5000317725","STATE":"50","COUNTY":"003","COUSUB":"17725"}},{"type":"Feature","geometry":null,"properties":{"NAME":"Milton town","BASENAME":"Milton","GEOID":"5000745250","STATE":"50","COUNTY":"007","COUSUB":"45250"}},{"type":"Feature","geometry":null,"properties":{"NAME":"Athens town","BASENAME":"Athens","GEOID":"5002501900","STATE":"50","COUNTY":"025","COUSUB":"01900"}},{"type":"Feature","geometry":null,"properties":{"NAME":"Norwich town","BASENAME":"Norwich","GEOID":"5002752900","STATE":"50","COUNTY":"027","COUSUB":"52900"}},{"type":"Feature","geometry":null,"properties":{"NAME":"Rochester town","BASENAME":"Rochester","GEOID":"5002760100","STATE":"50","COUNTY":"027","COUSUB":"60100"}},{"type":"Feature","geometry":null,"properties":{"NAME":"Swanton town","BASENAME":"Swanton","GEOID":"5001171725","STATE":"50","COUNTY":"011","COUSUB":"71725"}},{"type":"Feature","geometry":null,"properties":{"NAME":"Canaan town","BASENAME":"Canaan","GEOID":"5000911800","STATE":"50","COUNTY":"009","COUSUB":"11800"}},{"type":"Feature","geometry":null,"properties":{"NAME":"Lemington town","BASENAME":"Lemington","GEOID":"5000939700","STATE":"50","COUNTY":"009","COUSUB":"39700"}},{"type":"Feature","geometry":null,"properties":{"NAME":"Lunenburg town","BASENAME":"Lunenburg","GEOID":"5000941425","STATE":"50","COUNTY":"009","COUSUB":"41425"}},{"type":"Feature","geometry":null,"properties":{"NAME":"Maidstone town","BASENAME":"Maidstone","GEOID":"5000942475","STATE":"50","COUNTY":"009","COUSUB":"42475"}},{"type":"Feature","geometry":null,"properties":{"NAME":"Brunswick town","BASENAME":"Brunswick","GEOID":"5000910075","STATE":"50","COUNTY":"009","COUSUB":"10075"}},{"type":"Feature","geometry":null,"properties":{"NAME":"Grand Isle town","BASENAME":"Grand Isle","GEOID":"5001329275","STATE":"50","COUNTY":"013","COUSUB":"29275"}},{"type":"Feature","geometry":null,"properties":{"NAME":"Isle La Motte town","BASENAME":"Isle La Motte","GEOID":"5001335875","STATE":"50","COUNTY":"013","COUSUB":"35875"}},{"type":"Feature","geometry":null,"properties":{"NAME":"North Hero town","BASENAME":"North Hero","GEOID":"5001350650","STATE":"50","COUNTY":"013","COUSUB":"50650"}},{"type":"Feature","geometry":null,"properties":{"NAME":"South Hero town","BASENAME":"South Hero","GEOID":"5001367000","STATE":"50","COUNTY":"013","COUSUB":"67000"}},{"type":"Feature","geometry":null,"properties":{"NAME":"Fair Haven town","BASENAME":"Fair Haven","GEOID":"5002125375","STATE":"50","COUNTY":"021","COUSUB":"25375"}},{"type":"Feature","geometry":null,"properties":{"NAME":"Sudbury town","BASENAME":"Sudbury","GEOID":"5002171050","STATE":"50","COUNTY":"021","COUSUB":"71050"}},{"type":"Feature","geometry":null,"properties":{"NAME":"Tinmouth town","BASENAME":"Tinmouth","GEOID":"5002172925","STATE":"50","COUNTY":"021","COUSUB":"72925"}},{"type":"Feature","geometry":null,"properties":{"NAME":"Wells town","BASENAME":"Wells","GEOID":"5002177950","STATE":"50","COUNTY":"021","COUSUB":"77950"}},{"type":"Feature","geometry":null,"properties":{"NAME":"West Rutland town","BASENAME":"West Rutland","GEOID":"5002182300","STATE":"50","COUNTY":"021","COUSUB":"82300"}},{"type":"Feature","geometry":null,"properties":{"NAME":"Middlesex town","BASENAME":"Middlesex","GEOID":"5002344500","STATE":"50","COUNTY":"023","COUSUB":"44500"}},{"type":"Feature","geometry":null,"properties":{"NAME":"Burke town","BASENAME":"Burke","GEOID":"5000510450","STATE":"50","COUNTY":"005","COUSUB":"10450"}},{"type":"Feature","geometry":null,"properties":{"NAME":"Burlington city","BASENAME":"Burlington","GEOID":"5000710675","STATE":"50","COUNTY":"007","COUSUB":"10675"}},{"type":"Feature","geometry":null,"properties":{"NAME":"Shelburne town","BASENAME":"Shelburne","GEOID":"5000764300","STATE":"50","COUNTY":"007","COUSUB":"64300"}},{"type":"Feature","geometry":null,"properties":{"NAME":"South Burlington city","BASENAME":"South Burlington","GEOID":"5000766175","STATE":"50","COUNTY":"007","COUSUB":"66175"}},{"type":"Feature","geometry":null,"properties":{"NAME":"Williston town","BASENAME":"Williston","GEOID":"5000784475","STATE":"50","COUNTY":"007","COUSUB":"84475"}},{"type":"Feature","geometry":null,"properties":{"NAME":"Lincoln town","BASENAME":"Lincoln","GEOID":"5000140075","STATE":"50","COUNTY":"001","COUSUB":"40075"}},{"type":"Feature","geometry":null,"properties":{"NAME":"Whiting town","BASENAME":"Whiting","GEOID":"5000183800","STATE":"50","COUNTY":"001","COUSUB":"83800"}},{"type":"Feature","geometry":null,"properties":{"NAME":"Richford town","BASENAME":"Richford","GEOID":"5001159125","STATE":"50","COUNTY":"011","COUSUB":"59125"}},{"type":"Feature","geometry":null,"properties":{"NAME":"Halifax town","BASENAME":"Halifax","GEOID":"5002531150","STATE":"50","COUNTY":"025","COUSUB":"31150"}},{"type":"Feature","geometry":null,"properties":{"NAME":"Jamaica town","BASENAME":"Jamaica","GEOID":"5002536175","STATE":"50","COUNTY":"025","COUSUB":"36175"}},{"type":"Feature","geometry":null,"properties":{"NAME":"Marlboro town","BASENAME":"Marlboro","GEOID":"5002543375","STATE":"50","COUNTY":"025","COUSUB":"43375"}},{"type":"Feature","geometry":null,"properties":{"NAME":"Glastenbury town","BASENAME":"Glastenbury","GEOID":"5000327962","STATE":"50","COUNTY":"003","COUSUB":"27962"}},{"type":"Feature","geometry":null,"properties":{"NAME":"Landgrove town","BASENAME":"Landgrove","GEOID":"5000339025","STATE":"50","COUNTY":"003","COUSUB":"39025"}},{"type":"Feature","geometry":null,"properties":{"NAME":"Manchester town","BASENAME":"Manchester","GEOID":"5000342850","STATE":"50","COUNTY":"003","COUSUB":"42850"}},{"type":"Feature","geometry":null,"properties":{"NAME":"Peru town","BASENAME":"Peru","GEOID":"5000355000","STATE":"50","COUNTY":"003","COUSUB":"55000"}},{"type":"Feature","geometry":null,"properties":{"NAME":"Pownal town","BASENAME":"Pownal","GEOID":"5000357025","STATE":"50","COUNTY":"003","COUSUB":"57025"}},{"type":"Feature","geometry":null,"properties":{"NAME":"Readsboro town","BASENAME":"Readsboro","GEOID":"5000358600","STATE":"50","COUNTY":"003","COUSUB":"58600"}},{"type":"Feature","geometry":null,"properties":{"NAME":"Rupert town","BASENAME":"Rupert","GEOID":"5000361000","STATE":"50","COUNTY":"003","COUSUB":"61000"}},{"type":"Feature","geometry":null,"properties":{"NAME":"Shaftsbury town","BASENAME":"Shaftsbury","GEOID":"5000363550","STATE":"50","COUNTY":"003","COUSUB":"63550"}},{"type":"Feature","geometry":null,"properties":{"NAME":"Pittsford town","BASENAME":"Pittsford","GEOID":"5002155600","STATE":"50","COUNTY":"021","COUSUB":"55600"}},{"type":"Feature","geometry":null,"properties":{"NAME":"Proctor town","BASENAME":"Proctor","GEOID":"5002157250","STATE":"50","COUNTY":"021","COUSUB":"57250"}},{"type":"Feature","geometry":null,"properties":{"NAME":"Mount Tabor town","BASENAME":"Mount Tabor","GEOID":"5002147425","STATE":"50","COUNTY":"021","COUSUB":"47425"}},{"type":"Feature","geometry":null,"properties":{"NAME":"Rutland town","BASENAME":"Rutland","GEOID":"5002161300","STATE":"50","COUNTY":"021","COUSUB":"61300"}},{"type":"Feature","geometry":null,"properties":{"NAME":"West Haven town","BASENAME":"West Haven","GEOID":"5002180875","STATE":"50","COUNTY":"021","COUSUB":"80875"}},{"type":"Feature","geometry":null,"properties":{"NAME":"Somerset town","BASENAME":"Somerset","GEOID":"5002565762","STATE":"50","COUNTY":"025","COUSUB":"65762"}},{"type":"Feature","geometry":null,"properties":{"NAME":"Stratton town","BASENAME":"Stratton","GEOID":"5002570750","STATE":"50","COUNTY":"025","COUSUB":"70750"}},{"type":"Feature","geometry":null,"properties":{"NAME":"Townshend town","BASENAME":"Townshend","GEOID":"5002573300","STATE":"50","COUNTY":"025","COUSUB":"73300"}},{"type":"Feature","geometry":null,"properties":{"NAME":"Whitingham town","BASENAME":"Whitingham","GEOID":"5002583950","STATE":"50","COUNTY":"025","COUSUB":"83950"}},{"type":"Feature","geometry":null,"properties":{"NAME":"Wilmington town","BASENAME":"Wilmington","GEOID":"5002584700","STATE":"50","COUNTY":"025","COUSUB":"84700"}},{"type":"Feature","geometry":null,"properties":{"NAME":"Berlin town","BASENAME":"Berlin","GEOID":"5002305650","STATE":"50","COUNTY":"023","COUSUB":"05650"}},{"type":"Feature","geometry":null,"properties":{"NAME":"Barre city","BASENAME":"Barre","GEOID":"5002303175","STATE":"50","COUNTY":"023","COUSUB":"03175"}},{"type":"Feature","geometry":null,"properties":{"NAME":"East Montpelier town","BASENAME":"East Montpelier","GEOID":"5002321925","STATE":"50","COUNTY":"023","COUSUB":"21925"}},{"type":"Feature","geometry":null,"properties":{"NAME":"Fayston town","BASENAME":"Fayston","GEOID":"5002325825","STATE":"50","COUNTY":"023","COUSUB":"25825"}},{"type":"Feature","geometry":null,"properties":{"NAME":"Marshfield town","BASENAME":"Marshfield","GEOID":"5002343600","STATE":"50","COUNTY":"023","COUSUB":"43600"}},{"type":"Feature","geometry":null,"properties":{"NAME":"Middlebury town","BASENAME":"Middlebury","GEOID":"5000144350","STATE":"50","COUNTY":"001","COUSUB":"44350"}},{"type":"Feature","geometry":null,"properties":{"NAME":"Monkton town","BASENAME":"Monkton","GEOID":"5000145550","STATE":"50","COUNTY":"001","COUSUB":"45550"}},{"type":"Feature","geometry":null,"properties":{"NAME":"Duxbury town","BASENAME":"Duxbury","GEOID":"5002318550","STATE":"50","COUNTY":"023","COUSUB":"18550"}},{"type":"Feature","geometry":null,"properties":{"NAME":"Sutton town","BASENAME":"Sutton","GEOID":"5000571575","STATE":"50","COUNTY":"005","COUSUB":"71575"}},{"type":"Feature","geometry":null,"properties":{"NAME":"Walden town","BASENAME":"Walden","GEOID":"5000575700","STATE":"50","COUNTY":"005","COUSUB":"75700"}},{"type":"Feature","geometry":null,"properties":{"NAME":"Wheelock town","BASENAME":"Wheelock","GEOID":"5000583500","STATE":"50","COUNTY":"005","COUSUB":"83500"}},{"type":"Feature","geometry":null,"properties":{"NAME":"Cornwall town","BASENAME":"Cornwall","GEOID":"5000116000","STATE":"50","COUNTY":"001","COUSUB":"16000"}},{"type":"Feature","geometry":null,"properties":{"NAME":"Granville town","BASENAME":"Granville","GEOID":"5000129575","STATE":"50","COUNTY":"001","COUSUB":"29575"}},{"type":"Feature","geometry":null,"properties":{"NAME":"Hancock town","BASENAME":"Hancock","GEOID":"5000131525","STATE":"50","COUNTY":"001","COUSUB":"31525"}},{"type":"Feature","geometry":null,"properties":{"NAME":"Bloomfield town","BASENAME":"Bloomfield","GEOID":"5000906325","STATE":"50","COUNTY":"009","COUSUB":"06325"}},{"type":"Feature","geometry":null,"properties":{"NAME":"Brighton town","BASENAME":"Brighton","GEOID":"5000908725","STATE":"50","COUNTY":"009","COUSUB":"08725"}},{"type":"Feature","geometry":null,"properties":{"NAME":"Concord town","BASENAME":"Concord","GEOID":"5000915250","STATE":"50","COUNTY":"009","COUSUB":"15250"}},{"type":"Feature","geometry":null,"properties":{"NAME":"Elmore town","BASENAME":"Elmore","GEOID":"5001523725","STATE":"50","COUNTY":"015","COUSUB":"23725"}},{"type":"Feature","geometry":null,"properties":{"NAME":"Johnson town","BASENAME":"Johnson","GEOID":"5001537075","STATE":"50","COUNTY":"015","COUSUB":"37075"}},{"type":"Feature","geometry":null,"properties":{"NAME":"Stowe town","BASENAME":"Stowe","GEOID":"5001570525","STATE":"50","COUNTY":"015","COUSUB":"70525"}},{"type":"Feature","geometry":null,"properties":{"NAME":"Waterville town","BASENAME":"Waterville","GEOID":"5001577425","STATE":"50","COUNTY":"015","COUSUB":"77425"}},{"type":"Feature","geometry":null,"properties":{"NAME":"East Haven town","BASENAME":"East Haven","GEOID":"5000921250","STATE":"50","COUNTY":"009","COUSUB":"21250"}},{"type":"Feature","geometry":null,"properties":{"NAME":"Granby town","BASENAME":"Granby","GEOID":"5000929125","STATE":"50","COUNTY":"009","COUSUB":"29125"}},{"type":"Feature","geometry":null,"properties":{"NAME":"Alburgh town","BASENAME":"Alburgh","GEOID":"5001300860","STATE":"50","COUNTY":"013","COUSUB":"00860"}},{"type":"Feature","geometry":null,"properties":{"NAME":"Waltham town","BASENAME":"Waltham","GEOID":"5000176075","STATE":"50","COUNTY":"001","COUSUB":"76075"}},{"type":"Feature","geometry":null,"properties":{"NAME":"Addison town","BASENAME":"Addison","GEOID":"5000100325","STATE":"50","COUNTY":"001","COUSUB":"00325"}},{"type":"Feature","geometry":null,"properties":{"NAME":"Weybridge town","BASENAME":"Weybridge","GEOID":"5000183275","STATE":"50","COUNTY":"001","COUSUB":"83275"}}]}